{
"type": "FeatureCollection",
"name": "cut_lines",
"crs": { "type": "name", "properties": { "name": "urn:ogc:def:crs:EPSG::32719" } },
"features": [
{ "type": "Feature", "properties": { "a": 6, "b": 7, "contrast": 0.0475, "edge_support": 1.0, "boundary_m": 12.6, "confidence": "medium", "component": 1, "status": "proposed_cut", "needs_review": true }, "geometry": { "type": "LineString", "coordinates": [ [ 600865.705540000111796, 8171354.447730001062155 ], [ 600864.805540000088513, 8171354.447730001062155 ], [ 600864.805540000088513, 8171354.74773000087589 ], [ 600864.205540000111796, 8171354.74773000087589 ], [ 600864.205540000111796, 8171354.447730001062155 ], [ 600863.605540000135079, 8171354.447730001062155 ], [ 600863.605540000135079, 8171354.147730000317097 ], [ 600863.305540000088513, 8171354.147730000317097 ], [ 600863.305540000088513, 8171352.647730000317097 ], [ 600863.605540000135079, 8171352.647730000317097 ], [ 600863.605540000135079, 8171352.047730000689626 ], [ 600863.90554000006523, 8171352.047730000689626 ], [ 600863.90554000006523, 8171351.74773000087589 ], [ 600864.205540000111796, 8171351.74773000087589 ], [ 600864.205540000111796, 8171351.447730001062155 ], [ 600864.505540000041947, 8171351.447730001062155 ], [ 600864.505540000041947, 8171351.147730000317097 ], [ 600864.805540000088513, 8171351.147730000317097 ], [ 600864.805540000088513, 8171350.547730000689626 ], [ 600865.105540000135079, 8171350.547730000689626 ], [ 600865.105540000135079, 8171350.24773000087589 ], [ 600865.40554000006523, 8171350.24773000087589 ], [ 600865.40554000006523, 8171349.947730001062155 ], [ 600866.005540000041947, 8171349.947730001062155 ], [ 600866.005540000041947, 8171349.047730000689626 ], [ 600866.305540000088513, 8171349.047730000689626 ], [ 600866.305540000088513, 8171348.74773000087589 ], [ 600867.205540000111796, 8171348.74773000087589 ] ] } },
{ "type": "Feature", "properties": { "a": 5, "b": 6, "contrast": 0.1129, "edge_support": 1.0, "boundary_m": 1.5, "confidence": "high", "component": 1, "status": "proposed_cut", "needs_review": true }, "geometry": { "type": "LineString", "coordinates": [ [ 600865.705540000111796, 8171354.447730001062155 ], [ 600865.705540000111796, 8171354.147730000317097 ], [ 600866.005540000041947, 8171354.147730000317097 ], [ 600866.005540000041947, 8171353.547730000689626 ], [ 600866.305540000088513, 8171353.547730000689626 ] ] } },
{ "type": "Feature", "properties": { "a": 1, "b": 3, "contrast": 0.076, "edge_support": 1.0, "boundary_m": 15.9, "confidence": "medium", "component": 1, "status": "proposed_cut", "needs_review": true }, "geometry": { "type": "LineString", "coordinates": [ [ 600866.305540000088513, 8171380.24773000087589 ], [ 600868.40554000006523, 8171380.24773000087589 ], [ 600868.40554000006523, 8171379.947730001062155 ], [ 600868.705540000111796, 8171379.947730001062155 ], [ 600868.705540000111796, 8171379.647730000317097 ], [ 600870.205540000111796, 8171379.647730000317097 ], [ 600870.205540000111796, 8171378.147730000317097 ], [ 600870.505540000041947, 8171378.147730000317097 ], [ 600870.505540000041947, 8171377.847730000503361 ], [ 600871.105540000135079, 8171377.847730000503361 ], [ 600871.105540000135079, 8171377.547730000689626 ], [ 600871.40554000006523, 8171377.547730000689626 ], [ 600871.40554000006523, 8171377.847730000503361 ], [ 600872.005540000041947, 8171377.847730000503361 ], [ 600872.005540000041947, 8171379.347730000503361 ], [ 600871.705540000111796, 8171379.347730000503361 ], [ 600871.705540000111796, 8171379.947730001062155 ], [ 600871.40554000006523, 8171379.947730001062155 ], [ 600871.40554000006523, 8171380.24773000087589 ], [ 600871.105540000135079, 8171380.24773000087589 ], [ 600871.105540000135079, 8171381.147730000317097 ], [ 600870.505540000041947, 8171381.147730000317097 ], [ 600870.505540000041947, 8171381.447730001062155 ], [ 600870.205540000111796, 8171381.447730001062155 ], [ 600870.205540000111796, 8171381.74773000087589 ], [ 600869.90554000006523, 8171381.74773000087589 ], [ 600869.90554000006523, 8171382.947730001062155 ] ] } },
{ "type": "Feature", "properties": { "a": 2, "b": 3, "contrast": 0.1164, "edge_support": 1.0, "boundary_m": 1.8, "confidence": "high", "component": 1, "status": "proposed_cut", "needs_review": true }, "geometry": { "type": "LineString", "coordinates": [ [ 600864.205540000111796, 8171380.24773000087589 ], [ 600864.505540000041947, 8171380.24773000087589 ], [ 600864.505540000041947, 8171380.547730000689626 ], [ 600864.805540000088513, 8171380.547730000689626 ], [ 600864.805540000088513, 8171380.24773000087589 ], [ 600865.105540000135079, 8171380.24773000087589 ], [ 600865.105540000135079, 8171380.547730000689626 ] ] } },
{ "type": "Feature", "properties": { "a": 2, "b": 7, "contrast": 0.0727, "edge_support": 1.0, "boundary_m": 11.7, "confidence": "medium", "component": 1, "status": "proposed_cut", "needs_review": true }, "geometry": { "type": "LineString", "coordinates": [ [ 600859.705540000111796, 8171373.647730000317097 ], [ 600860.605540000135079, 8171373.647730000317097 ], [ 600860.605540000135079, 8171373.947730001062155 ], [ 600860.90554000006523, 8171373.947730001062155 ], [ 600860.90554000006523, 8171374.24773000087589 ], [ 600861.505540000041947, 8171374.24773000087589 ], [ 600861.505540000041947, 8171374.547730000689626 ], [ 600861.805540000088513, 8171374.547730000689626 ], [ 600861.805540000088513, 8171374.847730000503361 ], [ 600862.105540000135079, 8171374.847730000503361 ], [ 600862.105540000135079, 8171375.147730000317097 ], [ 600862.40554000006523, 8171375.147730000317097 ], [ 600862.40554000006523, 8171376.647730000317097 ], [ 600863.005540000041947, 8171376.647730000317097 ], [ 600863.005540000041947, 8171378.74773000087589 ], [ 600863.305540000088513, 8171378.74773000087589 ], [ 600863.305540000088513, 8171380.24773000087589 ], [ 600863.605540000135079, 8171380.24773000087589 ], [ 600863.605540000135079, 8171380.547730000689626 ], [ 600864.205540000111796, 8171380.547730000689626 ], [ 600864.205540000111796, 8171380.24773000087589 ] ] } },
{ "type": "Feature", "properties": { "a": 4, "b": 7, "contrast": 0.0629, "edge_support": 1.0, "boundary_m": 10.8, "confidence": "medium", "component": 1, "status": "proposed_cut", "needs_review": true }, "geometry": { "type": "LineString", "coordinates": [ [ 600853.105540000135079, 8171349.347730000503361 ], [ 600853.105540000135079, 8171349.947730001062155 ], [ 600853.40554000006523, 8171349.947730001062155 ], [ 600853.40554000006523, 8171351.447730001062155 ], [ 600853.705540000111796, 8171351.447730001062155 ], [ 600853.705540000111796, 8171353.547730000689626 ], [ 600854.005540000041947, 8171353.547730000689626 ], [ 600854.005540000041947, 8171355.947730001062155 ], [ 600854.305540000088513, 8171355.947730001062155 ], [ 600854.305540000088513, 8171358.647730000317097 ], [ 600854.005540000041947, 8171358.647730000317097 ] ] } },
{ "type": "Feature", "properties": { "a": 5, "b": 7, "contrast": 0.0654, "edge_support": 0.811, "boundary_m": 27.0, "confidence": "medium", "component": 1, "status": "proposed_cut", "needs_review": true }, "geometry": { "type": "LineString", "coordinates": [ [ 600867.805540000088513, 8171363.147730000317097 ], [ 600867.805540000088513, 8171363.74773000087589 ], [ 600864.805540000088513, 8171363.74773000087589 ], [ 600864.805540000088513, 8171364.047730000689626 ], [ 600863.005540000041947, 8171364.047730000689626 ], [ 600863.005540000041947, 8171364.347730000503361 ], [ 600860.605540000135079, 8171364.347730000503361 ], [ 600860.605540000135079, 8171364.047730000689626 ], [ 600860.305540000088513, 8171364.047730000689626 ], [ 600860.305540000088513, 8171363.447730001062155 ], [ 600860.005540000041947, 8171363.447730001062155 ], [ 600860.005540000041947, 8171362.24773000087589 ], [ 600859.705540000111796, 8171362.24773000087589 ], [ 600859.705540000111796, 8171360.447730001062155 ], [ 600859.40554000006523, 8171360.447730001062155 ], [ 600859.40554000006523, 8171360.147730000317097 ], [ 600859.705540000111796, 8171360.147730000317097 ], [ 600859.705540000111796, 8171358.947730001062155 ], [ 600860.005540000041947, 8171358.947730001062155 ], [ 600860.005540000041947, 8171358.647730000317097 ], [ 600860.305540000088513, 8171358.647730000317097 ], [ 600860.305540000088513, 8171356.847730000503361 ], [ 600860.005540000041947, 8171356.847730000503361 ], [ 600860.005540000041947, 8171355.947730001062155 ], [ 600860.90554000006523, 8171355.947730001062155 ], [ 600860.90554000006523, 8171356.24773000087589 ], [ 600862.105540000135079, 8171356.24773000087589 ], [ 600862.105540000135079, 8171355.947730001062155 ], [ 600863.005540000041947, 8171355.947730001062155 ], [ 600863.005540000041947, 8171355.647730000317097 ], [ 600864.205540000111796, 8171355.647730000317097 ], [ 600864.205540000111796, 8171355.347730000503361 ], [ 600865.705540000111796, 8171355.347730000503361 ], [ 600865.705540000111796, 8171354.447730001062155 ] ] } },
{ "type": "Feature", "properties": { "a": 3, "b": 7, "contrast": 0.0439, "edge_support": 1.0, "boundary_m": 33.0, "confidence": "medium", "component": 1, "status": "proposed_cut", "needs_review": true }, "geometry": { "type": "LineString", "coordinates": [ [ 600864.205540000111796, 8171380.24773000087589 ], [ 600864.205540000111796, 8171379.347730000503361 ], [ 600864.505540000041947, 8171379.347730000503361 ], [ 600864.505540000041947, 8171379.047730000689626 ], [ 600864.805540000088513, 8171379.047730000689626 ], [ 600864.805540000088513, 8171378.74773000087589 ], [ 600865.105540000135079, 8171378.74773000087589 ], [ 600865.105540000135079, 8171378.147730000317097 ], [ 600865.40554000006523, 8171378.147730000317097 ], [ 600865.40554000006523, 8171377.847730000503361 ], [ 600865.705540000111796, 8171377.847730000503361 ], [ 600865.705540000111796, 8171377.547730000689626 ], [ 600866.005540000041947, 8171377.547730000689626 ], [ 600866.005540000041947, 8171376.947730001062155 ], [ 600866.305540000088513, 8171376.947730001062155 ], [ 600866.305540000088513, 8171376.647730000317097 ], [ 600866.605540000135079, 8171376.647730000317097 ], [ 600866.605540000135079, 8171376.347730000503361 ], [ 600866.90554000006523, 8171376.347730000503361 ], [ 600866.90554000006523, 8171376.047730000689626 ], [ 600867.205540000111796, 8171376.047730000689626 ], [ 600867.205540000111796, 8171375.447730001062155 ], [ 600867.505540000041947, 8171375.447730001062155 ], [ 600867.505540000041947, 8171375.147730000317097 ], [ 600867.805540000088513, 8171375.147730000317097 ], [ 600867.805540000088513, 8171374.847730000503361 ], [ 600868.40554000006523, 8171374.847730000503361 ], [ 600868.40554000006523, 8171374.547730000689626 ], [ 600868.705540000111796, 8171374.547730000689626 ], [ 600868.705540000111796, 8171374.24773000087589 ], [ 600869.605540000135079, 8171374.24773000087589 ], [ 600869.605540000135079, 8171373.647730000317097 ], [ 600870.505540000041947, 8171373.647730000317097 ], [ 600870.505540000041947, 8171373.347730000503361 ], [ 600871.40554000006523, 8171373.347730000503361 ], [ 600871.40554000006523, 8171373.047730000689626 ], [ 600871.705540000111796, 8171373.047730000689626 ], [ 600871.705540000111796, 8171372.147730000317097 ], [ 600871.40554000006523, 8171372.147730000317097 ], [ 600871.40554000006523, 8171371.847730000503361 ], [ 600871.105540000135079, 8171371.847730000503361 ], [ 600871.105540000135079, 8171371.547730000689626 ], [ 600869.005540000041947, 8171371.547730000689626 ], [ 600869.005540000041947, 8171370.947730001062155 ], [ 600868.705540000111796, 8171370.947730001062155 ], [ 600868.705540000111796, 8171370.647730000317097 ], [ 600868.40554000006523, 8171370.647730000317097 ], [ 600868.40554000006523, 8171368.847730000503361 ], [ 600868.705540000111796, 8171368.847730000503361 ], [ 600868.705540000111796, 8171368.547730000689626 ], [ 600869.005540000041947, 8171368.547730000689626 ], [ 600869.005540000041947, 8171368.24773000087589 ], [ 600869.305540000088513, 8171368.24773000087589 ], [ 600869.305540000088513, 8171367.647730000317097 ], [ 600869.605540000135079, 8171367.647730000317097 ], [ 600869.605540000135079, 8171367.047730000689626 ], [ 600869.90554000006523, 8171367.047730000689626 ], [ 600869.90554000006523, 8171366.74773000087589 ], [ 600870.205540000111796, 8171366.74773000087589 ], [ 600870.205540000111796, 8171366.447730001062155 ], [ 600870.505540000041947, 8171366.447730001062155 ], [ 600870.505540000041947, 8171365.847730000503361 ], [ 600870.805540000088513, 8171365.847730000503361 ], [ 600870.805540000088513, 8171365.24773000087589 ], [ 600871.105540000135079, 8171365.24773000087589 ], [ 600871.105540000135079, 8171364.947730001062155 ], [ 600871.40554000006523, 8171364.947730001062155 ], [ 600871.40554000006523, 8171364.647730000317097 ], [ 600871.705540000111796, 8171364.647730000317097 ], [ 600871.705540000111796, 8171364.347730000503361 ], [ 600872.005540000041947, 8171364.347730000503361 ], [ 600872.005540000041947, 8171364.047730000689626 ], [ 600872.305540000088513, 8171364.047730000689626 ], [ 600872.305540000088513, 8171363.74773000087589 ], [ 600872.605540000135079, 8171363.74773000087589 ], [ 600872.605540000135079, 8171363.447730001062155 ], [ 600872.90554000006523, 8171363.447730001062155 ], [ 600872.90554000006523, 8171363.74773000087589 ], [ 600873.505540000041947, 8171363.74773000087589 ] ] } },
{ "type": "Feature", "properties": { "a": 13, "b": 14, "contrast": 0.1532, "edge_support": 1.0, "boundary_m": 5.1, "confidence": "high", "component": 7, "status": "proposed_cut", "needs_review": true }, "geometry": { "type": "LineString", "coordinates": [ [ 600797.90554000006523, 8171322.947730001062155 ], [ 600797.90554000006523, 8171321.147730000317097 ], [ 600798.205540000111796, 8171321.147730000317097 ], [ 600798.205540000111796, 8171320.847730000503361 ], [ 600797.90554000006523, 8171320.847730000503361 ], [ 600797.90554000006523, 8171318.447730001062155 ] ] } },
{ "type": "Feature", "properties": { "a": 21, "b": 22, "contrast": 0.1567, "edge_support": 1.0, "boundary_m": 6.3, "confidence": "high", "component": 14, "status": "proposed_cut", "needs_review": true }, "geometry": { "type": "LineString", "coordinates": [ [ 600973.705540000111796, 8171287.24773000087589 ], [ 600974.305540000088513, 8171287.24773000087589 ], [ 600974.305540000088513, 8171287.547730000689626 ], [ 600974.90554000006523, 8171287.547730000689626 ], [ 600974.90554000006523, 8171287.847730000503361 ], [ 600975.505540000041947, 8171287.847730000503361 ], [ 600975.505540000041947, 8171288.147730000317097 ], [ 600976.105540000135079, 8171288.147730000317097 ], [ 600976.105540000135079, 8171288.447730001062155 ], [ 600976.40554000006523, 8171288.447730001062155 ], [ 600976.40554000006523, 8171288.74773000087589 ], [ 600977.005540000041947, 8171288.74773000087589 ], [ 600977.005540000041947, 8171289.047730000689626 ], [ 600977.305540000088513, 8171289.047730000689626 ], [ 600977.305540000088513, 8171289.347730000503361 ], [ 600977.605540000135079, 8171289.347730000503361 ], [ 600977.605540000135079, 8171289.647730000317097 ] ] } },
{ "type": "Feature", "properties": { "a": 27, "b": 29, "contrast": 0.066, "edge_support": 1.0, "boundary_m": 15.0, "confidence": "medium", "component": 17, "status": "proposed_cut", "needs_review": true }, "geometry": { "type": "LineString", "coordinates": [ [ 600945.505540000041947, 8171255.147730000317097 ], [ 600944.90554000006523, 8171255.147730000317097 ], [ 600944.90554000006523, 8171255.447730001062155 ], [ 600943.40554000006523, 8171255.447730001062155 ], [ 600943.40554000006523, 8171255.74773000087589 ], [ 600943.105540000135079, 8171255.74773000087589 ], [ 600943.105540000135079, 8171256.047730000689626 ], [ 600942.805540000088513, 8171256.047730000689626 ], [ 600942.805540000088513, 8171257.24773000087589 ], [ 600942.505540000041947, 8171257.24773000087589 ], [ 600942.505540000041947, 8171258.74773000087589 ], [ 600942.805540000088513, 8171258.74773000087589 ], [ 600942.805540000088513, 8171259.047730000689626 ], [ 600942.505540000041947, 8171259.047730000689626 ], [ 600942.505540000041947, 8171259.347730000503361 ], [ 600942.805540000088513, 8171259.347730000503361 ], [ 600942.805540000088513, 8171260.847730000503361 ], [ 600943.105540000135079, 8171260.847730000503361 ], [ 600943.105540000135079, 8171261.147730000317097 ], [ 600943.40554000006523, 8171261.147730000317097 ], [ 600943.40554000006523, 8171261.74773000087589 ], [ 600944.005540000041947, 8171261.74773000087589 ], [ 600944.005540000041947, 8171262.047730000689626 ], [ 600944.305540000088513, 8171262.047730000689626 ], [ 600944.305540000088513, 8171261.74773000087589 ], [ 600945.205540000111796, 8171261.74773000087589 ], [ 600945.205540000111796, 8171261.447730001062155 ], [ 600945.505540000041947, 8171261.447730001062155 ], [ 600945.505540000041947, 8171261.147730000317097 ], [ 600945.805540000088513, 8171261.147730000317097 ], [ 600945.805540000088513, 8171260.847730000503361 ] ] } },
{ "type": "Feature", "properties": { "a": 27, "b": 30, "contrast": 0.06, "edge_support": 1.0, "boundary_m": 1.2, "confidence": "medium", "component": 17, "status": "proposed_cut", "needs_review": true }, "geometry": { "type": "LineString", "coordinates": [ [ 600944.005540000041947, 8171253.647730000317097 ], [ 600944.005540000041947, 8171253.947730001062155 ], [ 600944.90554000006523, 8171253.947730001062155 ] ] } },
{ "type": "Feature", "properties": { "a": 25, "b": 28, "contrast": 0.0716, "edge_support": 1.0, "boundary_m": 31.5, "confidence": "medium", "component": 17, "status": "proposed_cut", "needs_review": true }, "geometry": { "type": "LineString", "coordinates": [ [ 600923.305540000088513, 8171264.74773000087589 ], [ 600923.90554000006523, 8171264.74773000087589 ], [ 600923.90554000006523, 8171264.447730001062155 ], [ 600924.505540000041947, 8171264.447730001062155 ], [ 600924.505540000041947, 8171264.147730000317097 ], [ 600925.705540000111796, 8171264.147730000317097 ], [ 600925.705540000111796, 8171264.447730001062155 ], [ 600926.90554000006523, 8171264.447730001062155 ], [ 600926.90554000006523, 8171264.74773000087589 ], [ 600927.505540000041947, 8171264.74773000087589 ], [ 600927.505540000041947, 8171265.047730000689626 ], [ 600928.705540000111796, 8171265.047730000689626 ], [ 600928.705540000111796, 8171264.74773000087589 ], [ 600929.005540000041947, 8171264.74773000087589 ], [ 600929.005540000041947, 8171264.447730001062155 ], [ 600929.305540000088513, 8171264.447730001062155 ], [ 600929.305540000088513, 8171264.147730000317097 ], [ 600929.605540000135079, 8171264.147730000317097 ], [ 600929.605540000135079, 8171263.847730000503361 ], [ 600929.90554000006523, 8171263.847730000503361 ], [ 600929.90554000006523, 8171262.647730000317097 ], [ 600930.205540000111796, 8171262.647730000317097 ], [ 600930.205540000111796, 8171262.047730000689626 ], [ 600929.605540000135079, 8171262.047730000689626 ], [ 600929.605540000135079, 8171261.74773000087589 ], [ 600929.305540000088513, 8171261.74773000087589 ], [ 600929.305540000088513, 8171261.447730001062155 ], [ 600928.705540000111796, 8171261.447730001062155 ], [ 600928.705540000111796, 8171261.147730000317097 ], [ 600923.305540000088513, 8171261.147730000317097 ], [ 600923.305540000088513, 8171261.447730001062155 ], [ 600922.705540000111796, 8171261.447730001062155 ], [ 600922.705540000111796, 8171261.147730000317097 ], [ 600921.205540000111796, 8171261.147730000317097 ], [ 600921.205540000111796, 8171261.447730001062155 ], [ 600920.90554000006523, 8171261.447730001062155 ], [ 600920.90554000006523, 8171261.147730000317097 ], [ 600919.105540000135079, 8171261.147730000317097 ], [ 600919.105540000135079, 8171261.447730001062155 ], [ 600917.005540000041947, 8171261.447730001062155 ], [ 600917.005540000041947, 8171261.147730000317097 ], [ 600915.205540000111796, 8171261.147730000317097 ], [ 600915.205540000111796, 8171261.447730001062155 ], [ 600914.605540000135079, 8171261.447730001062155 ], [ 600914.605540000135079, 8171262.047730000689626 ], [ 600914.305540000088513, 8171262.047730000689626 ], [ 600914.305540000088513, 8171262.647730000317097 ] ] } },
{ "type": "Feature", "properties": { "a": 25, "b": 27, "contrast": 0.0877, "edge_support": 1.0, "boundary_m": 5.1, "confidence": "high", "component": 17, "status": "proposed_cut", "needs_review": true }, "geometry": { "type": "LineString", "coordinates": [ [ 600943.705540000111796, 8171264.74773000087589 ], [ 600948.805540000088513, 8171264.74773000087589 ] ] } },
{ "type": "Feature", "properties": { "a": 32, "b": 33, "contrast": 0.1255, "edge_support": 1.0, "boundary_m": 2.4, "confidence": "high", "component": 17, "status": "proposed_cut", "needs_review": true }, "geometry": { "type": "LineString", "coordinates": [ [ 600926.005540000041947, 8171204.147730000317097 ], [ 600928.40554000006523, 8171204.147730000317097 ] ] } },
{ "type": "Feature", "properties": { "a": 25, "b": 26, "contrast": 0.0979, "edge_support": 1.0, "boundary_m": 3.9, "confidence": "high", "component": 17, "status": "proposed_cut", "needs_review": true }, "geometry": { "type": "LineString", "coordinates": [ [ 600933.805540000088513, 8171261.74773000087589 ], [ 600933.805540000088513, 8171262.947730001062155 ], [ 600933.505540000041947, 8171262.947730001062155 ], [ 600933.505540000041947, 8171263.847730000503361 ], [ 600933.805540000088513, 8171263.847730000503361 ], [ 600933.805540000088513, 8171264.447730001062155 ], [ 600934.105540000135079, 8171264.447730001062155 ], [ 600934.105540000135079, 8171264.74773000087589 ] ] } },
{ "type": "Feature", "properties": { "a": 25, "b": 32, "contrast": 0.0871, "edge_support": 1.0, "boundary_m": 8.7, "confidence": "high", "component": 17, "status": "proposed_cut", "needs_review": true }, "geometry": { "type": "LineString", "coordinates": [ [ 600921.505540000041947, 8171216.447730001062155 ], [ 600921.805540000088513, 8171216.447730001062155 ], [ 600921.805540000088513, 8171216.74773000087589 ], [ 600922.105540000135079, 8171216.74773000087589 ], [ 600922.105540000135079, 8171217.047730000689626 ], [ 600922.40554000006523, 8171217.047730000689626 ], [ 600922.40554000006523, 8171217.347730000503361 ], [ 600922.705540000111796, 8171217.347730000503361 ], [ 600922.705540000111796, 8171217.647730000317097 ], [ 600923.005540000041947, 8171217.647730000317097 ], [ 600923.005540000041947, 8171217.947730001062155 ], [ 600923.605540000135079, 8171217.947730001062155 ], [ 600923.605540000135079, 8171218.847730000503361 ], [ 600923.90554000006523, 8171218.847730000503361 ], [ 600923.90554000006523, 8171219.147730000317097 ], [ 600924.205540000111796, 8171219.147730000317097 ], [ 600924.205540000111796, 8171219.447730001062155 ], [ 600924.505540000041947, 8171219.447730001062155 ], [ 600924.505540000041947, 8171219.74773000087589 ], [ 600925.105540000135079, 8171219.74773000087589 ], [ 600925.105540000135079, 8171220.047730000689626 ], [ 600925.40554000006523, 8171220.047730000689626 ], [ 600925.40554000006523, 8171220.347730000503361 ], [ 600926.305540000088513, 8171220.347730000503361 ] ] } },
{ "type": "Feature", "properties": { "a": 31, "b": 32, "contrast": 0.0698, "edge_support": 1.0, "boundary_m": 3.9, "confidence": "medium", "component": 17, "status": "proposed_cut", "needs_review": true }, "geometry": { "type": "LineString", "coordinates": [ [ 600926.605540000135079, 8171216.74773000087589 ], [ 600926.605540000135079, 8171216.147730000317097 ], [ 600929.005540000041947, 8171216.147730000317097 ], [ 600929.005540000041947, 8171215.847730000503361 ], [ 600929.605540000135079, 8171215.847730000503361 ] ] } },
{ "type": "Feature", "properties": { "a": 37, "b": 38, "contrast": 0.0629, "edge_support": 1.0, "boundary_m": 12.0, "confidence": "medium", "component": 21, "status": "proposed_cut", "needs_review": true }, "geometry": { "type": "LineString", "coordinates": [ [ 600746.605540000135079, 8171267.74773000087589 ], [ 600746.605540000135079, 8171267.447730001062155 ], [ 600746.90554000006523, 8171267.447730001062155 ], [ 600746.90554000006523, 8171267.74773000087589 ], [ 600747.205540000111796, 8171267.74773000087589 ], [ 600747.205540000111796, 8171268.047730000689626 ], [ 600747.805540000088513, 8171268.047730000689626 ], [ 600747.805540000088513, 8171268.947730001062155 ], [ 600747.505540000041947, 8171268.947730001062155 ], [ 600747.505540000041947, 8171269.24773000087589 ], [ 600747.805540000088513, 8171269.24773000087589 ], [ 600747.805540000088513, 8171269.547730000689626 ], [ 600749.305540000088513, 8171269.547730000689626 ], [ 600749.305540000088513, 8171269.24773000087589 ], [ 600749.605540000135079, 8171269.24773000087589 ], [ 600749.605540000135079, 8171268.947730001062155 ], [ 600749.005540000041947, 8171268.947730001062155 ], [ 600749.005540000041947, 8171268.047730000689626 ], [ 600750.505540000041947, 8171268.047730000689626 ], [ 600750.505540000041947, 8171267.74773000087589 ], [ 600750.805540000088513, 8171267.74773000087589 ], [ 600750.805540000088513, 8171267.147730000317097 ], [ 600751.105540000135079, 8171267.147730000317097 ], [ 600751.105540000135079, 8171266.847730000503361 ], [ 600751.705540000111796, 8171266.847730000503361 ] ] } },
{ "type": "Feature", "properties": { "a": 42, "b": 43, "contrast": 0.0795, "edge_support": 1.0, "boundary_m": 11.7, "confidence": "medium", "component": 25, "status": "proposed_cut", "needs_review": true }, "geometry": { "type": "LineString", "coordinates": [ [ 600737.605540000135079, 8171256.947730001062155 ], [ 600737.605540000135079, 8171257.24773000087589 ], [ 600737.005540000041947, 8171257.24773000087589 ], [ 600737.005540000041947, 8171257.547730000689626 ], [ 600736.705540000111796, 8171257.547730000689626 ], [ 600736.705540000111796, 8171261.74773000087589 ], [ 600737.005540000041947, 8171261.74773000087589 ], [ 600737.005540000041947, 8171262.347730000503361 ], [ 600737.305540000088513, 8171262.347730000503361 ], [ 600737.305540000088513, 8171262.647730000317097 ], [ 600740.005540000041947, 8171262.647730000317097 ], [ 600740.005540000041947, 8171262.347730000503361 ], [ 600740.305540000088513, 8171262.347730000503361 ], [ 600740.305540000088513, 8171262.047730000689626 ], [ 600740.605540000135079, 8171262.047730000689626 ], [ 600740.605540000135079, 8171261.74773000087589 ], [ 600740.90554000006523, 8171261.74773000087589 ] ] } },
{ "type": "Feature", "properties": { "a": 44, "b": 45, "contrast": 0.0946, "edge_support": 1.0, "boundary_m": 6.3, "confidence": "high", "component": 26, "status": "proposed_cut", "needs_review": true }, "geometry": { "type": "LineString", "coordinates": [ [ 600712.705540000111796, 8171257.24773000087589 ], [ 600712.40554000006523, 8171257.24773000087589 ], [ 600712.40554000006523, 8171258.74773000087589 ], [ 600712.705540000111796, 8171258.74773000087589 ], [ 600712.705540000111796, 8171259.047730000689626 ], [ 600713.005540000041947, 8171259.047730000689626 ], [ 600713.005540000041947, 8171259.347730000503361 ], [ 600713.305540000088513, 8171259.347730000503361 ], [ 600713.305540000088513, 8171259.647730000317097 ], [ 600714.205540000111796, 8171259.647730000317097 ], [ 600714.205540000111796, 8171259.347730000503361 ], [ 600714.805540000088513, 8171259.347730000503361 ], [ 600714.805540000088513, 8171259.047730000689626 ], [ 600715.40554000006523, 8171259.047730000689626 ] ] } },
{ "type": "Feature", "properties": { "a": 52, "b": 53, "contrast": 0.045, "edge_support": 0.913, "boundary_m": 20.7, "confidence": "medium", "component": 33, "status": "proposed_cut", "needs_review": true }, "geometry": { "type": "LineString", "coordinates": [ [ 600733.40554000006523, 8171235.947730001062155 ], [ 600733.40554000006523, 8171236.24773000087589 ], [ 600733.705540000111796, 8171236.24773000087589 ], [ 600733.705540000111796, 8171236.547730000689626 ], [ 600734.90554000006523, 8171236.547730000689626 ], [ 600734.90554000006523, 8171236.847730000503361 ], [ 600735.505540000041947, 8171236.847730000503361 ], [ 600735.505540000041947, 8171237.147730000317097 ], [ 600735.805540000088513, 8171237.147730000317097 ], [ 600735.805540000088513, 8171236.847730000503361 ], [ 600737.005540000041947, 8171236.847730000503361 ], [ 600737.005540000041947, 8171237.147730000317097 ], [ 600737.605540000135079, 8171237.147730000317097 ], [ 600737.605540000135079, 8171237.447730001062155 ], [ 600738.205540000111796, 8171237.447730001062155 ], [ 600738.205540000111796, 8171238.347730000503361 ], [ 600737.605540000135079, 8171238.347730000503361 ], [ 600737.605540000135079, 8171238.647730000317097 ], [ 600736.705540000111796, 8171238.647730000317097 ], [ 600736.705540000111796, 8171238.347730000503361 ], [ 600736.40554000006523, 8171238.347730000503361 ], [ 600736.40554000006523, 8171237.447730001062155 ], [ 600735.805540000088513, 8171237.447730001062155 ], [ 600735.805540000088513, 8171237.74773000087589 ], [ 600735.505540000041947, 8171237.74773000087589 ], [ 600735.505540000041947, 8171238.047730000689626 ], [ 600735.205540000111796, 8171238.047730000689626 ], [ 600735.205540000111796, 8171238.947730001062155 ], [ 600735.505540000041947, 8171238.947730001062155 ], [ 600735.505540000041947, 8171239.547730000689626 ], [ 600735.805540000088513, 8171239.547730000689626 ], [ 600735.805540000088513, 8171241.647730000317097 ], [ 600736.105540000135079, 8171241.647730000317097 ], [ 600736.105540000135079, 8171242.547730000689626 ], [ 600735.805540000088513, 8171242.547730000689626 ], [ 600735.805540000088513, 8171244.647730000317097 ] ] } },
{ "type": "Feature", "properties": { "a": 58, "b": 59, "contrast": 0.1457, "edge_support": 1.0, "boundary_m": 7.8, "confidence": "high", "component": 38, "status": "proposed_cut", "needs_review": true }, "geometry": { "type": "MultiLineString", "coordinates": [ [ [ 600944.305540000088513, 8171233.847730000503361 ], [ 600944.305540000088513, 8171232.647730000317097 ], [ 600944.605540000135079, 8171232.647730000317097 ], [ 600944.605540000135079, 8171232.047730000689626 ], [ 600944.305540000088513, 8171232.047730000689626 ], [ 600944.305540000088513, 8171231.147730000317097 ] ], [ [ 600944.605540000135079, 8171238.947730001062155 ], [ 600944.605540000135079, 8171238.047730000689626 ], [ 600944.305540000088513, 8171238.047730000689626 ], [ 600944.305540000088513, 8171234.74773000087589 ] ] ] } },
{ "type": "Feature", "properties": { "a": 59, "b": 60, "contrast": 0.0875, "edge_support": 0.923, "boundary_m": 7.8, "confidence": "high", "component": 38, "status": "proposed_cut", "needs_review": true }, "geometry": { "type": "LineString", "coordinates": [ [ 600930.805540000088513, 8171234.74773000087589 ], [ 600931.40554000006523, 8171234.74773000087589 ], [ 600931.40554000006523, 8171234.447730001062155 ], [ 600931.705540000111796, 8171234.447730001062155 ], [ 600931.705540000111796, 8171234.147730000317097 ], [ 600932.005540000041947, 8171234.147730000317097 ], [ 600932.005540000041947, 8171233.847730000503361 ], [ 600932.305540000088513, 8171233.847730000503361 ], [ 600932.305540000088513, 8171233.547730000689626 ], [ 600933.505540000041947, 8171233.547730000689626 ], [ 600933.505540000041947, 8171233.24773000087589 ], [ 600934.105540000135079, 8171233.24773000087589 ], [ 600934.105540000135079, 8171232.647730000317097 ], [ 600934.40554000006523, 8171232.647730000317097 ], [ 600934.40554000006523, 8171230.547730000689626 ] ] } },
{ "type": "Feature", "properties": { "a": 63, "b": 64, "contrast": 0.0536, "edge_support": 1.0, "boundary_m": 4.8, "confidence": "medium", "component": 41, "status": "proposed_cut", "needs_review": true }, "geometry": { "type": "LineString", "coordinates": [ [ 600974.005540000041947, 8171222.74773000087589 ], [ 600974.005540000041947, 8171222.447730001062155 ], [ 600974.305540000088513, 8171222.447730001062155 ], [ 600974.305540000088513, 8171222.74773000087589 ], [ 600974.605540000135079, 8171222.74773000087589 ], [ 600974.605540000135079, 8171224.24773000087589 ], [ 600975.205540000111796, 8171224.24773000087589 ], [ 600975.205540000111796, 8171224.547730000689626 ], [ 600975.805540000088513, 8171224.547730000689626 ], [ 600975.805540000088513, 8171224.24773000087589 ], [ 600976.105540000135079, 8171224.24773000087589 ] ] } },
{ "type": "Feature", "properties": { "a": 67, "b": 69, "contrast": 0.0921, "edge_support": 1.0, "boundary_m": 5.1, "confidence": "high", "component": 42, "status": "proposed_cut", "needs_review": true }, "geometry": { "type": "LineString", "coordinates": [ [ 600803.005540000041947, 8171186.447730001062155 ], [ 600803.605540000135079, 8171186.447730001062155 ], [ 600803.605540000135079, 8171186.147730000317097 ], [ 600807.205540000111796, 8171186.147730000317097 ], [ 600807.205540000111796, 8171185.847730000503361 ], [ 600807.505540000041947, 8171185.847730000503361 ] ] } },
{ "type": "Feature", "properties": { "a": 66, "b": 68, "contrast": 0.1184, "edge_support": 1.0, "boundary_m": 17.4, "confidence": "high", "component": 42, "status": "proposed_cut", "needs_review": true }, "geometry": { "type": "LineString", "coordinates": [ [ 600811.705540000111796, 8171197.847730000503361 ], [ 600812.305540000088513, 8171197.847730000503361 ], [ 600812.305540000088513, 8171197.547730000689626 ], [ 600812.90554000006523, 8171197.547730000689626 ], [ 600812.90554000006523, 8171197.24773000087589 ], [ 600813.805540000088513, 8171197.24773000087589 ], [ 600813.805540000088513, 8171196.947730001062155 ], [ 600821.305540000088513, 8171196.947730001062155 ], [ 600821.305540000088513, 8171196.647730000317097 ], [ 600824.305540000088513, 8171196.647730000317097 ], [ 600824.305540000088513, 8171196.347730000503361 ], [ 600824.90554000006523, 8171196.347730000503361 ], [ 600824.90554000006523, 8171196.647730000317097 ], [ 600825.205540000111796, 8171196.647730000317097 ], [ 600825.205540000111796, 8171196.947730001062155 ], [ 600825.505540000041947, 8171196.947730001062155 ], [ 600825.505540000041947, 8171197.24773000087589 ], [ 600825.805540000088513, 8171197.24773000087589 ], [ 600825.805540000088513, 8171197.547730000689626 ], [ 600825.505540000041947, 8171197.547730000689626 ], [ 600825.505540000041947, 8171197.847730000503361 ] ] } },
{ "type": "Feature", "properties": { "a": 68, "b": 69, "contrast": 0.0471, "edge_support": 0.905, "boundary_m": 94.5, "confidence": "medium", "component": 42, "status": "proposed_cut", "needs_review": true }, "geometry": { "type": "LineString", "coordinates": [ [ 600807.505540000041947, 8171185.847730000503361 ], [ 600816.805540000088513, 8171185.847730000503361 ], [ 600816.805540000088513, 8171185.547730000689626 ], [ 600819.805540000088513, 8171185.547730000689626 ], [ 600819.805540000088513, 8171185.24773000087589 ], [ 600821.605540000135079, 8171185.24773000087589 ], [ 600821.605540000135079, 8171185.547730000689626 ], [ 600823.705540000111796, 8171185.547730000689626 ], [ 600823.705540000111796, 8171185.24773000087589 ], [ 600824.605540000135079, 8171185.24773000087589 ], [ 600824.605540000135079, 8171185.547730000689626 ], [ 600824.90554000006523, 8171185.547730000689626 ], [ 600824.90554000006523, 8171185.847730000503361 ], [ 600825.205540000111796, 8171185.847730000503361 ], [ 600825.205540000111796, 8171186.147730000317097 ], [ 600825.505540000041947, 8171186.147730000317097 ], [ 600825.505540000041947, 8171187.647730000317097 ], [ 600825.805540000088513, 8171187.647730000317097 ], [ 600825.805540000088513, 8171190.647730000317097 ], [ 600826.105540000135079, 8171190.647730000317097 ], [ 600826.105540000135079, 8171191.24773000087589 ], [ 600827.005540000041947, 8171191.24773000087589 ], [ 600827.005540000041947, 8171191.847730000503361 ], [ 600826.705540000111796, 8171191.847730000503361 ], [ 600826.705540000111796, 8171193.047730000689626 ], [ 600826.40554000006523, 8171193.047730000689626 ], [ 600826.40554000006523, 8171194.547730000689626 ], [ 600827.005540000041947, 8171194.547730000689626 ], [ 600827.005540000041947, 8171194.847730000503361 ], [ 600828.205540000111796, 8171194.847730000503361 ], [ 600828.205540000111796, 8171195.147730000317097 ], [ 600828.505540000041947, 8171195.147730000317097 ], [ 600828.505540000041947, 8171195.447730001062155 ], [ 600829.105540000135079, 8171195.447730001062155 ], [ 600829.105540000135079, 8171195.74773000087589 ], [ 600829.40554000006523, 8171195.74773000087589 ], [ 600829.40554000006523, 8171196.047730000689626 ], [ 600829.705540000111796, 8171196.047730000689626 ], [ 600829.705540000111796, 8171196.347730000503361 ], [ 600830.005540000041947, 8171196.347730000503361 ], [ 600830.005540000041947, 8171197.547730000689626 ], [ 600831.205540000111796, 8171197.547730000689626 ], [ 600831.205540000111796, 8171197.24773000087589 ], [ 600831.505540000041947, 8171197.24773000087589 ], [ 600831.505540000041947, 8171196.947730001062155 ], [ 600831.805540000088513, 8171196.947730001062155 ], [ 600831.805540000088513, 8171195.147730000317097 ], [ 600831.505540000041947, 8171195.147730000317097 ], [ 600831.505540000041947, 8171194.847730000503361 ], [ 600831.205540000111796, 8171194.847730000503361 ], [ 600831.205540000111796, 8171194.547730000689626 ], [ 600830.90554000006523, 8171194.547730000689626 ], [ 600830.90554000006523, 8171193.947730001062155 ], [ 600830.605540000135079, 8171193.947730001062155 ], [ 600830.605540000135079, 8171193.347730000503361 ], [ 600830.305540000088513, 8171193.347730000503361 ], [ 600830.305540000088513, 8171190.047730000689626 ], [ 600830.005540000041947, 8171190.047730000689626 ], [ 600830.005540000041947, 8171189.447730001062155 ], [ 600830.305540000088513, 8171189.447730001062155 ], [ 600830.305540000088513, 8171188.547730000689626 ], [ 600829.40554000006523, 8171188.547730000689626 ], [ 600829.40554000006523, 8171186.74773000087589 ], [ 600829.705540000111796, 8171186.74773000087589 ], [ 600829.705540000111796, 8171186.447730001062155 ], [ 600830.005540000041947, 8171186.447730001062155 ], [ 600830.005540000041947, 8171186.74773000087589 ], [ 600831.505540000041947, 8171186.74773000087589 ], [ 600831.505540000041947, 8171187.047730000689626 ], [ 600831.805540000088513, 8171187.047730000689626 ], [ 600831.805540000088513, 8171187.347730000503361 ], [ 600832.105540000135079, 8171187.347730000503361 ], [ 600832.105540000135079, 8171187.647730000317097 ], [ 600833.605540000135079, 8171187.647730000317097 ], [ 600833.605540000135079, 8171187.947730001062155 ], [ 600834.205540000111796, 8171187.947730001062155 ], [ 600834.205540000111796, 8171187.647730000317097 ], [ 600835.705540000111796, 8171187.647730000317097 ], [ 600835.705540000111796, 8171187.347730000503361 ], [ 600836.605540000135079, 8171187.347730000503361 ], [ 600836.605540000135079, 8171187.647730000317097 ], [ 600837.205540000111796, 8171187.647730000317097 ], [ 600837.205540000111796, 8171187.947730001062155 ], [ 600837.505540000041947, 8171187.947730001062155 ], [ 600837.505540000041947, 8171187.647730000317097 ], [ 600839.605540000135079, 8171187.647730000317097 ], [ 600839.605540000135079, 8171187.947730001062155 ], [ 600840.205540000111796, 8171187.947730001062155 ], [ 600840.205540000111796, 8171188.24773000087589 ], [ 600840.505540000041947, 8171188.24773000087589 ], [ 600840.505540000041947, 8171187.947730001062155 ], [ 600841.105540000135079, 8171187.947730001062155 ], [ 600841.105540000135079, 8171187.647730000317097 ], [ 600841.40554000006523, 8171187.647730000317097 ], [ 600841.40554000006523, 8171187.947730001062155 ], [ 600842.305540000088513, 8171187.947730001062155 ], [ 600842.305540000088513, 8171187.647730000317097 ], [ 600842.605540000135079, 8171187.647730000317097 ], [ 600842.605540000135079, 8171187.347730000503361 ], [ 600842.90554000006523, 8171187.347730000503361 ], [ 600842.90554000006523, 8171187.647730000317097 ], [ 600843.805540000088513, 8171187.647730000317097 ], [ 600843.805540000088513, 8171187.347730000503361 ], [ 600844.105540000135079, 8171187.347730000503361 ], [ 600844.105540000135079, 8171187.647730000317097 ], [ 600845.005540000041947, 8171187.647730000317097 ], [ 600845.005540000041947, 8171187.347730000503361 ], [ 600846.505540000041947, 8171187.347730000503361 ], [ 600846.505540000041947, 8171187.047730000689626 ], [ 600848.605540000135079, 8171187.047730000689626 ], [ 600848.605540000135079, 8171185.547730000689626 ], [ 600848.305540000088513, 8171185.547730000689626 ], [ 600848.305540000088513, 8171184.047730000689626 ], [ 600848.005540000041947, 8171184.047730000689626 ], [ 600848.005540000041947, 8171183.74773000087589 ], [ 600848.305540000088513, 8171183.74773000087589 ], [ 600848.305540000088513, 8171182.547730000689626 ], [ 600848.605540000135079, 8171182.547730000689626 ], [ 600848.605540000135079, 8171180.147730000317097 ], [ 600848.90554000006523, 8171180.147730000317097 ], [ 600848.90554000006523, 8171179.847730000503361 ], [ 600849.205540000111796, 8171179.847730000503361 ], [ 600849.205540000111796, 8171179.547730000689626 ], [ 600849.505540000041947, 8171179.547730000689626 ], [ 600849.505540000041947, 8171179.24773000087589 ], [ 600850.705540000111796, 8171179.24773000087589 ], [ 600850.705540000111796, 8171178.947730001062155 ], [ 600853.105540000135079, 8171178.947730001062155 ], [ 600853.105540000135079, 8171179.24773000087589 ], [ 600854.005540000041947, 8171179.24773000087589 ], [ 600854.005540000041947, 8171178.947730001062155 ], [ 600854.305540000088513, 8171178.947730001062155 ] ] } },
{ "type": "Feature", "properties": { "a": 67, "b": 68, "contrast": 0.0477, "edge_support": 0.851, "boundary_m": 30.3, "confidence": "medium", "component": 42, "status": "proposed_cut", "needs_review": true }, "geometry": { "type": "LineString", "coordinates": [ [ 600807.505540000041947, 8171185.847730000503361 ], [ 600807.505540000041947, 8171186.74773000087589 ], [ 600808.105540000135079, 8171186.74773000087589 ], [ 600808.105540000135079, 8171187.947730001062155 ], [ 600807.505540000041947, 8171187.947730001062155 ], [ 600807.505540000041947, 8171188.24773000087589 ], [ 600807.205540000111796, 8171188.24773000087589 ], [ 600807.205540000111796, 8171188.547730000689626 ], [ 600806.605540000135079, 8171188.547730000689626 ], [ 600806.605540000135079, 8171188.847730000503361 ], [ 600804.805540000088513, 8171188.847730000503361 ], [ 600804.805540000088513, 8171189.147730000317097 ], [ 600804.505540000041947, 8171189.147730000317097 ], [ 600804.505540000041947, 8171189.447730001062155 ], [ 600803.90554000006523, 8171189.447730001062155 ], [ 600803.90554000006523, 8171190.647730000317097 ], [ 600804.205540000111796, 8171190.647730000317097 ], [ 600804.205540000111796, 8171191.24773000087589 ], [ 600803.90554000006523, 8171191.24773000087589 ], [ 600803.90554000006523, 8171191.547730000689626 ], [ 600804.205540000111796, 8171191.547730000689626 ], [ 600804.205540000111796, 8171191.847730000503361 ], [ 600803.90554000006523, 8171191.847730000503361 ], [ 600803.90554000006523, 8171193.347730000503361 ], [ 600804.505540000041947, 8171193.347730000503361 ], [ 600804.505540000041947, 8171193.047730000689626 ], [ 600806.305540000088513, 8171193.047730000689626 ], [ 600806.305540000088513, 8171194.24773000087589 ], [ 600806.005540000041947, 8171194.24773000087589 ], [ 600806.005540000041947, 8171194.547730000689626 ], [ 600805.105540000135079, 8171194.547730000689626 ], [ 600805.105540000135079, 8171195.147730000317097 ], [ 600804.805540000088513, 8171195.147730000317097 ], [ 600804.805540000088513, 8171195.447730001062155 ], [ 600804.505540000041947, 8171195.447730001062155 ], [ 600804.505540000041947, 8171196.047730000689626 ], [ 600804.205540000111796, 8171196.047730000689626 ], [ 600804.205540000111796, 8171196.347730000503361 ], [ 600804.505540000041947, 8171196.347730000503361 ], [ 600804.505540000041947, 8171196.947730001062155 ], [ 600804.805540000088513, 8171196.947730001062155 ], [ 600804.805540000088513, 8171197.547730000689626 ], [ 600807.505540000041947, 8171197.547730000689626 ], [ 600807.505540000041947, 8171197.24773000087589 ], [ 600810.505540000041947, 8171197.24773000087589 ], [ 600810.505540000041947, 8171197.547730000689626 ], [ 600811.105540000135079, 8171197.547730000689626 ] ] } },
{ "type": "Feature", "properties": { "a": 65, "b": 68, "contrast": 0.048, "edge_support": 0.982, "boundary_m": 17.1, "confidence": "medium", "component": 42, "status": "proposed_cut", "needs_review": true }, "geometry": { "type": "LineString", "coordinates": [ [ 600856.705540000111796, 8171229.347730000503361 ], [ 600856.705540000111796, 8171227.847730000503361 ], [ 600856.40554000006523, 8171227.847730000503361 ], [ 600856.40554000006523, 8171227.547730000689626 ], [ 600856.105540000135079, 8171227.547730000689626 ], [ 600856.105540000135079, 8171225.74773000087589 ], [ 600855.805540000088513, 8171225.74773000087589 ], [ 600855.805540000088513, 8171223.647730000317097 ], [ 600855.505540000041947, 8171223.647730000317097 ], [ 600855.505540000041947, 8171221.547730000689626 ], [ 600855.805540000088513, 8171221.547730000689626 ], [ 600855.805540000088513, 8171220.947730001062155 ], [ 600855.505540000041947, 8171220.947730001062155 ], [ 600855.505540000041947, 8171219.74773000087589 ], [ 600855.205540000111796, 8171219.74773000087589 ], [ 600855.205540000111796, 8171219.447730001062155 ], [ 600855.505540000041947, 8171219.447730001062155 ], [ 600855.505540000041947, 8171219.147730000317097 ], [ 600855.805540000088513, 8171219.147730000317097 ], [ 600855.805540000088513, 8171219.447730001062155 ], [ 600856.105540000135079, 8171219.447730001062155 ], [ 600856.105540000135079, 8171219.147730000317097 ], [ 600856.705540000111796, 8171219.147730000317097 ], [ 600856.705540000111796, 8171218.847730000503361 ], [ 600856.40554000006523, 8171218.847730000503361 ], [ 600856.40554000006523, 8171217.647730000317097 ], [ 600856.105540000135079, 8171217.647730000317097 ], [ 600856.105540000135079, 8171217.047730000689626 ] ] } },
{ "type": "Feature", "properties": { "a": 71, "b": 72, "contrast": 0.1749, "edge_support": 1.0, "boundary_m": 2.7, "confidence": "high", "component": 43, "status": "proposed_cut", "needs_review": true }, "geometry": { "type": "MultiLineString", "coordinates": [ [ [ 600686.90554000006523, 8171204.447730001062155 ], [ 600689.005540000041947, 8171204.447730001062155 ] ], [ [ 600689.305540000088513, 8171204.147730000317097 ], [ 600689.90554000006523, 8171204.147730000317097 ] ] ] } },
{ "type": "Feature", "properties": { "a": 70, "b": 71, "contrast": 0.1196, "edge_support": 0.843, "boundary_m": 21.0, "confidence": "high", "component": 43, "status": "proposed_cut", "needs_review": true }, "geometry": { "type": "LineString", "coordinates": [ [ 600684.805540000088513, 8171210.74773000087589 ], [ 600684.805540000088513, 8171211.347730000503361 ], [ 600684.505540000041947, 8171211.347730000503361 ], [ 600684.505540000041947, 8171211.647730000317097 ], [ 600684.205540000111796, 8171211.647730000317097 ], [ 600684.205540000111796, 8171212.847730000503361 ], [ 600683.605540000135079, 8171212.847730000503361 ], [ 600683.605540000135079, 8171213.147730000317097 ], [ 600683.305540000088513, 8171213.147730000317097 ], [ 600683.305540000088513, 8171214.347730000503361 ], [ 600682.105540000135079, 8171214.347730000503361 ], [ 600682.105540000135079, 8171214.047730000689626 ], [ 600680.005540000041947, 8171214.047730000689626 ], [ 600680.005540000041947, 8171214.647730000317097 ], [ 600679.705540000111796, 8171214.647730000317097 ], [ 600679.705540000111796, 8171215.24773000087589 ], [ 600679.40554000006523, 8171215.24773000087589 ], [ 600679.40554000006523, 8171216.74773000087589 ], [ 600679.705540000111796, 8171216.74773000087589 ], [ 600679.705540000111796, 8171217.047730000689626 ], [ 600680.005540000041947, 8171217.047730000689626 ], [ 600680.005540000041947, 8171217.347730000503361 ], [ 600682.40554000006523, 8171217.347730000503361 ], [ 600682.40554000006523, 8171217.647730000317097 ], [ 600683.305540000088513, 8171217.647730000317097 ], [ 600683.305540000088513, 8171217.947730001062155 ], [ 600686.005540000041947, 8171217.947730001062155 ], [ 600686.005540000041947, 8171217.647730000317097 ], [ 600686.305540000088513, 8171217.647730000317097 ], [ 600686.305540000088513, 8171217.347730000503361 ], [ 600686.605540000135079, 8171217.347730000503361 ] ] } },
{ "type": "Feature", "properties": { "a": 77, "b": 78, "contrast": 0.0422, "edge_support": 0.719, "boundary_m": 26.7, "confidence": "medium", "component": 48, "status": "proposed_cut", "needs_review": true }, "geometry": { "type": "MultiLineString", "coordinates": [ [ [ 600713.90554000006523, 8171208.947730001062155 ], [ 600713.90554000006523, 8171209.24773000087589 ], [ 600714.505540000041947, 8171209.24773000087589 ], [ 600714.505540000041947, 8171209.547730000689626 ], [ 600714.805540000088513, 8171209.547730000689626 ], [ 600714.805540000088513, 8171209.847730000503361 ], [ 600716.305540000088513, 8171209.847730000503361 ], [ 600716.305540000088513, 8171210.447730001062155 ], [ 600716.605540000135079, 8171210.447730001062155 ], [ 600716.605540000135079, 8171212.24773000087589 ], [ 600716.90554000006523, 8171212.24773000087589 ], [ 600716.90554000006523, 8171212.547730000689626 ], [ 600717.205540000111796, 8171212.547730000689626 ], [ 600717.205540000111796, 8171212.847730000503361 ], [ 600717.505540000041947, 8171212.847730000503361 ], [ 600717.505540000041947, 8171213.147730000317097 ], [ 600718.105540000135079, 8171213.147730000317097 ], [ 600718.105540000135079, 8171212.847730000503361 ], [ 600718.40554000006523, 8171212.847730000503361 ], [ 600718.40554000006523, 8171212.547730000689626 ], [ 600718.705540000111796, 8171212.547730000689626 ], [ 600718.705540000111796, 8171211.947730001062155 ] ], [ [ 600718.705540000111796, 8171208.947730001062155 ], [ 600718.705540000111796, 8171208.647730000317097 ], [ 600719.005540000041947, 8171208.647730000317097 ], [ 600719.005540000041947, 8171207.74773000087589 ], [ 600719.305540000088513, 8171207.74773000087589 ], [ 600719.305540000088513, 8171207.147730000317097 ], [ 600719.605540000135079, 8171207.147730000317097 ], [ 600719.605540000135079, 8171206.24773000087589 ], [ 600719.305540000088513, 8171206.24773000087589 ], [ 600719.305540000088513, 8171205.947730001062155 ], [ 600719.005540000041947, 8171205.947730001062155 ], [ 600719.005540000041947, 8171205.647730000317097 ], [ 600718.705540000111796, 8171205.647730000317097 ], [ 600718.705540000111796, 8171205.947730001062155 ], [ 600718.40554000006523, 8171205.947730001062155 ], [ 600718.40554000006523, 8171206.24773000087589 ], [ 600717.505540000041947, 8171206.24773000087589 ], [ 600717.505540000041947, 8171204.74773000087589 ], [ 600717.205540000111796, 8171204.74773000087589 ], [ 600717.205540000111796, 8171204.147730000317097 ], [ 600716.90554000006523, 8171204.147730000317097 ], [ 600716.90554000006523, 8171203.547730000689626 ], [ 600716.605540000135079, 8171203.547730000689626 ], [ 600716.605540000135079, 8171203.847730000503361 ], [ 600716.305540000088513, 8171203.847730000503361 ], [ 600716.305540000088513, 8171204.147730000317097 ], [ 600716.005540000041947, 8171204.147730000317097 ], [ 600716.005540000041947, 8171204.447730001062155 ], [ 600715.705540000111796, 8171204.447730001062155 ], [ 600715.705540000111796, 8171204.74773000087589 ], [ 600716.005540000041947, 8171204.74773000087589 ], [ 600716.005540000041947, 8171205.347730000503361 ], [ 600716.305540000088513, 8171205.347730000503361 ], [ 600716.305540000088513, 8171206.547730000689626 ], [ 600714.805540000088513, 8171206.547730000689626 ] ] ] } },
{ "type": "Feature", "properties": { "a": 81, "b": 82, "contrast": 0.1351, "edge_support": 1.0, "boundary_m": 9.6, "confidence": "high", "component": 51, "status": "proposed_cut", "needs_review": true }, "geometry": { "type": "LineString", "coordinates": [ [ 600968.305540000088513, 8171210.147730000317097 ], [ 600968.605540000135079, 8171210.147730000317097 ], [ 600968.605540000135079, 8171209.847730000503361 ], [ 600968.90554000006523, 8171209.847730000503361 ], [ 600968.90554000006523, 8171209.547730000689626 ], [ 600969.205540000111796, 8171209.547730000689626 ], [ 600969.205540000111796, 8171209.24773000087589 ], [ 600969.505540000041947, 8171209.24773000087589 ], [ 600969.505540000041947, 8171208.947730001062155 ], [ 600969.805540000088513, 8171208.947730001062155 ], [ 600969.805540000088513, 8171208.647730000317097 ], [ 600970.105540000135079, 8171208.647730000317097 ], [ 600970.105540000135079, 8171208.047730000689626 ], [ 600970.40554000006523, 8171208.047730000689626 ], [ 600970.40554000006523, 8171207.74773000087589 ], [ 600970.705540000111796, 8171207.74773000087589 ], [ 600970.705540000111796, 8171206.847730000503361 ], [ 600971.005540000041947, 8171206.847730000503361 ], [ 600971.005540000041947, 8171206.547730000689626 ], [ 600971.305540000088513, 8171206.547730000689626 ], [ 600971.305540000088513, 8171206.24773000087589 ], [ 600971.605540000135079, 8171206.24773000087589 ], [ 600971.605540000135079, 8171205.947730001062155 ], [ 600971.90554000006523, 8171205.947730001062155 ], [ 600971.90554000006523, 8171205.347730000503361 ], [ 600972.205540000111796, 8171205.347730000503361 ], [ 600972.205540000111796, 8171205.047730000689626 ], [ 600972.505540000041947, 8171205.047730000689626 ], [ 600972.505540000041947, 8171204.74773000087589 ] ] } },
{ "type": "Feature", "properties": { "a": 83, "b": 84, "contrast": 0.0936, "edge_support": 0.667, "boundary_m": 8.1, "confidence": "high", "component": 51, "status": "proposed_cut", "needs_review": true }, "geometry": { "type": "LineString", "coordinates": [ [ 600977.305540000088513, 8171201.147730000317097 ], [ 600977.90554000006523, 8171201.147730000317097 ], [ 600977.90554000006523, 8171201.447730001062155 ], [ 600978.205540000111796, 8171201.447730001062155 ], [ 600978.205540000111796, 8171201.74773000087589 ], [ 600978.505540000041947, 8171201.74773000087589 ], [ 600978.505540000041947, 8171201.447730001062155 ], [ 600979.705540000111796, 8171201.447730001062155 ], [ 600979.705540000111796, 8171199.947730001062155 ], [ 600979.40554000006523, 8171199.947730001062155 ], [ 600979.40554000006523, 8171199.647730000317097 ], [ 600980.005540000041947, 8171199.647730000317097 ], [ 600980.005540000041947, 8171199.347730000503361 ], [ 600980.90554000006523, 8171199.347730000503361 ], [ 600980.90554000006523, 8171199.647730000317097 ], [ 600981.505540000041947, 8171199.647730000317097 ] ] } },
{ "type": "Feature", "properties": { "a": 81, "b": 83, "contrast": 0.2791, "edge_support": 1.0, "boundary_m": 2.4, "confidence": "high", "component": 51, "status": "proposed_cut", "needs_review": true }, "geometry": { "type": "MultiLineString", "coordinates": [ [ [ 600977.005540000041947, 8171206.847730000503361 ], [ 600977.005540000041947, 8171207.447730001062155 ], [ 600977.305540000088513, 8171207.447730001062155 ], [ 600977.305540000088513, 8171207.74773000087589 ] ], [ [ 600978.205540000111796, 8171209.24773000087589 ], [ 600978.505540000041947, 8171209.24773000087589 ], [ 600978.505540000041947, 8171209.547730000689626 ], [ 600978.805540000088513, 8171209.547730000689626 ], [ 600978.805540000088513, 8171209.847730000503361 ] ] ] } },
{ "type": "Feature", "properties": { "a": 89, "b": 90, "contrast": 0.0839, "edge_support": 1.0, "boundary_m": 22.5, "confidence": "high", "component": 56, "status": "proposed_cut", "needs_review": true }, "geometry": { "type": "LineString", "coordinates": [ [ 600940.105540000135079, 8171181.947730001062155 ], [ 600940.105540000135079, 8171182.547730000689626 ], [ 600939.805540000088513, 8171182.547730000689626 ], [ 600939.805540000088513, 8171185.547730000689626 ], [ 600940.105540000135079, 8171185.547730000689626 ], [ 600940.105540000135079, 8171189.147730000317097 ], [ 600940.40554000006523, 8171189.147730000317097 ], [ 600940.40554000006523, 8171192.74773000087589 ], [ 600940.705540000111796, 8171192.74773000087589 ], [ 600940.705540000111796, 8171193.047730000689626 ], [ 600940.40554000006523, 8171193.047730000689626 ], [ 600940.40554000006523, 8171193.947730001062155 ], [ 600940.705540000111796, 8171193.947730001062155 ], [ 600940.705540000111796, 8171194.24773000087589 ], [ 600941.305540000088513, 8171194.24773000087589 ], [ 600941.305540000088513, 8171194.547730000689626 ], [ 600941.90554000006523, 8171194.547730000689626 ], [ 600941.90554000006523, 8171195.147730000317097 ], [ 600942.205540000111796, 8171195.147730000317097 ], [ 600942.205540000111796, 8171196.047730000689626 ], [ 600942.505540000041947, 8171196.047730000689626 ], [ 600942.505540000041947, 8171196.347730000503361 ], [ 600942.805540000088513, 8171196.347730000503361 ], [ 600942.805540000088513, 8171196.047730000689626 ], [ 600944.005540000041947, 8171196.047730000689626 ], [ 600944.005540000041947, 8171195.74773000087589 ], [ 600944.305540000088513, 8171195.74773000087589 ], [ 600944.305540000088513, 8171195.447730001062155 ], [ 600944.605540000135079, 8171195.447730001062155 ], [ 600944.605540000135079, 8171193.947730001062155 ] ] } },
{ "type": "Feature", "properties": { "a": 92, "b": 93, "contrast": 0.0401, "edge_support": 0.611, "boundary_m": 10.8, "confidence": "medium", "component": 58, "status": "proposed_cut", "needs_review": true }, "geometry": { "type": "LineString", "coordinates": [ [ 600766.705540000111796, 8171198.447730001062155 ], [ 600766.705540000111796, 8171197.24773000087589 ], [ 600766.40554000006523, 8171197.24773000087589 ], [ 600766.40554000006523, 8171196.947730001062155 ], [ 600766.705540000111796, 8171196.947730001062155 ], [ 600766.705540000111796, 8171196.647730000317097 ], [ 600767.305540000088513, 8171196.647730000317097 ], [ 600767.305540000088513, 8171196.347730000503361 ], [ 600767.605540000135079, 8171196.347730000503361 ], [ 600767.605540000135079, 8171196.047730000689626 ], [ 600767.90554000006523, 8171196.047730000689626 ], [ 600767.90554000006523, 8171194.24773000087589 ], [ 600768.805540000088513, 8171194.24773000087589 ], [ 600768.805540000088513, 8171193.647730000317097 ], [ 600769.40554000006523, 8171193.647730000317097 ], [ 600769.40554000006523, 8171191.847730000503361 ], [ 600770.305540000088513, 8171191.847730000503361 ] ] } },
{ "type": "Feature", "properties": { "a": 95, "b": 97, "contrast": 0.1003, "edge_support": 1.0, "boundary_m": 6.3, "confidence": "high", "component": 60, "status": "proposed_cut", "needs_review": true }, "geometry": { "type": "LineString", "coordinates": [ [ 600688.105540000135079, 8171182.547730000689626 ], [ 600689.305540000088513, 8171182.547730000689626 ], [ 600689.305540000088513, 8171182.24773000087589 ], [ 600691.105540000135079, 8171182.24773000087589 ], [ 600691.105540000135079, 8171182.547730000689626 ], [ 600691.705540000111796, 8171182.547730000689626 ], [ 600691.705540000111796, 8171182.24773000087589 ], [ 600693.505540000041947, 8171182.24773000087589 ] ] } },
{ "type": "Feature", "properties": { "a": 95, "b": 96, "contrast": 0.0806, "edge_support": 1.0, "boundary_m": 20.4, "confidence": "high", "component": 60, "status": "proposed_cut", "needs_review": true }, "geometry": { "type": "LineString", "coordinates": [ [ 600693.505540000041947, 8171183.447730001062155 ], [ 600693.505540000041947, 8171183.74773000087589 ], [ 600690.805540000088513, 8171183.74773000087589 ], [ 600690.805540000088513, 8171183.447730001062155 ], [ 600690.205540000111796, 8171183.447730001062155 ], [ 600690.205540000111796, 8171183.74773000087589 ], [ 600689.605540000135079, 8171183.74773000087589 ], [ 600689.605540000135079, 8171185.847730000503361 ], [ 600689.305540000088513, 8171185.847730000503361 ], [ 600689.305540000088513, 8171186.74773000087589 ], [ 600689.605540000135079, 8171186.74773000087589 ], [ 600689.605540000135079, 8171187.047730000689626 ], [ 600689.305540000088513, 8171187.047730000689626 ], [ 600689.305540000088513, 8171188.24773000087589 ], [ 600689.605540000135079, 8171188.24773000087589 ], [ 600689.605540000135079, 8171189.447730001062155 ], [ 600689.305540000088513, 8171189.447730001062155 ], [ 600689.305540000088513, 8171189.74773000087589 ], [ 600689.605540000135079, 8171189.74773000087589 ], [ 600689.605540000135079, 8171190.347730000503361 ], [ 600689.90554000006523, 8171190.347730000503361 ], [ 600689.90554000006523, 8171190.947730001062155 ], [ 600693.205540000111796, 8171190.947730001062155 ], [ 600693.205540000111796, 8171190.647730000317097 ], [ 600694.705540000111796, 8171190.647730000317097 ], [ 600694.705540000111796, 8171190.947730001062155 ], [ 600695.005540000041947, 8171190.947730001062155 ], [ 600695.005540000041947, 8171191.24773000087589 ], [ 600695.305540000088513, 8171191.24773000087589 ] ] } },
{ "type": "Feature", "properties": { "a": 98, "b": 99, "contrast": 0.0453, "edge_support": 1.0, "boundary_m": 5.7, "confidence": "medium", "component": 61, "status": "proposed_cut", "needs_review": true }, "geometry": { "type": "LineString", "coordinates": [ [ 600918.205540000111796, 8171186.147730000317097 ], [ 600918.205540000111796, 8171180.74773000087589 ], [ 600917.90554000006523, 8171180.74773000087589 ] ] } },
{ "type": "Feature", "properties": { "a": 100, "b": 101, "contrast": 0.0476, "edge_support": 1.0, "boundary_m": 4.2, "confidence": "medium", "component": 62, "status": "proposed_cut", "needs_review": true }, "geometry": { "type": "LineString", "coordinates": [ [ 600730.40554000006523, 8171184.047730000689626 ], [ 600731.005540000041947, 8171184.047730000689626 ], [ 600731.005540000041947, 8171182.547730000689626 ], [ 600730.705540000111796, 8171182.547730000689626 ], [ 600730.705540000111796, 8171182.24773000087589 ], [ 600730.40554000006523, 8171182.24773000087589 ], [ 600730.40554000006523, 8171181.347730000503361 ], [ 600730.705540000111796, 8171181.347730000503361 ] ] } },
{ "type": "Feature", "properties": { "a": 105, "b": 106, "contrast": 0.0422, "edge_support": 1.0, "boundary_m": 6.6, "confidence": "medium", "component": 66, "status": "proposed_cut", "needs_review": true }, "geometry": { "type": "LineString", "coordinates": [ [ 600743.005540000041947, 8171179.24773000087589 ], [ 600743.305540000088513, 8171179.24773000087589 ], [ 600743.305540000088513, 8171179.547730000689626 ], [ 600743.605540000135079, 8171179.547730000689626 ], [ 600743.605540000135079, 8171180.147730000317097 ], [ 600744.205540000111796, 8171180.147730000317097 ], [ 600744.205540000111796, 8171180.447730001062155 ], [ 600744.505540000041947, 8171180.447730001062155 ], [ 600744.505540000041947, 8171180.74773000087589 ], [ 600745.105540000135079, 8171180.74773000087589 ], [ 600745.105540000135079, 8171181.047730000689626 ], [ 600745.40554000006523, 8171181.047730000689626 ], [ 600745.40554000006523, 8171180.74773000087589 ], [ 600746.90554000006523, 8171180.74773000087589 ], [ 600746.90554000006523, 8171180.447730001062155 ], [ 600747.205540000111796, 8171180.447730001062155 ] ] } },
{ "type": "Feature", "properties": { "a": 129, "b": 130, "contrast": 0.0491, "edge_support": 1.0, "boundary_m": 7.5, "confidence": "medium", "component": 89, "status": "proposed_cut", "needs_review": true }, "geometry": { "type": "LineString", "coordinates": [ [ 600785.605540000135079, 8171146.24773000087589 ], [ 600785.90554000006523, 8171146.24773000087589 ], [ 600785.90554000006523, 8171145.947730001062155 ], [ 600786.205540000111796, 8171145.947730001062155 ], [ 600786.205540000111796, 8171144.74773000087589 ], [ 600786.505540000041947, 8171144.74773000087589 ], [ 600786.505540000041947, 8171143.547730000689626 ], [ 600786.205540000111796, 8171143.547730000689626 ], [ 600786.205540000111796, 8171142.347730000503361 ], [ 600786.805540000088513, 8171142.347730000503361 ], [ 600786.805540000088513, 8171142.047730000689626 ], [ 600787.105540000135079, 8171142.047730000689626 ], [ 600787.105540000135079, 8171141.74773000087589 ], [ 600787.40554000006523, 8171141.74773000087589 ], [ 600787.40554000006523, 8171141.147730000317097 ] ] } },
{ "type": "Feature", "properties": { "a": 132, "b": 133, "contrast": 0.0764, "edge_support": 1.0, "boundary_m": 10.5, "confidence": "medium", "component": 90, "status": "proposed_cut", "needs_review": true }, "geometry": { "type": "LineString", "coordinates": [ [ 600881.605540000135079, 8171136.947730001062155 ], [ 600881.605540000135079, 8171137.24773000087589 ], [ 600887.005540000041947, 8171137.24773000087589 ], [ 600887.005540000041947, 8171136.947730001062155 ], [ 600887.305540000088513, 8171136.947730001062155 ], [ 600887.305540000088513, 8171137.24773000087589 ], [ 600887.605540000135079, 8171137.24773000087589 ], [ 600887.605540000135079, 8171137.847730000503361 ], [ 600887.90554000006523, 8171137.847730000503361 ], [ 600887.90554000006523, 8171140.547730000689626 ] ] } },
{ "type": "Feature", "properties": { "a": 135, "b": 136, "contrast": 0.0434, "edge_support": 0.692, "boundary_m": 11.7, "confidence": "medium", "component": 90, "status": "proposed_cut", "needs_review": true }, "geometry": { "type": "LineString", "coordinates": [ [ 600874.705540000111796, 8171126.74773000087589 ], [ 600875.005540000041947, 8171126.74773000087589 ], [ 600875.005540000041947, 8171125.847730000503361 ], [ 600875.305540000088513, 8171125.847730000503361 ], [ 600875.305540000088513, 8171125.547730000689626 ], [ 600878.005540000041947, 8171125.547730000689626 ], [ 600878.005540000041947, 8171125.847730000503361 ], [ 600878.305540000088513, 8171125.847730000503361 ], [ 600878.305540000088513, 8171125.547730000689626 ], [ 600878.605540000135079, 8171125.547730000689626 ], [ 600878.605540000135079, 8171125.24773000087589 ], [ 600879.205540000111796, 8171125.24773000087589 ], [ 600879.205540000111796, 8171124.647730000317097 ], [ 600879.505540000041947, 8171124.647730000317097 ], [ 600879.505540000041947, 8171124.347730000503361 ], [ 600879.205540000111796, 8171124.347730000503361 ], [ 600879.205540000111796, 8171123.147730000317097 ], [ 600879.505540000041947, 8171123.147730000317097 ], [ 600879.505540000041947, 8171122.24773000087589 ], [ 600879.805540000088513, 8171122.24773000087589 ], [ 600879.805540000088513, 8171121.347730000503361 ] ] } },
{ "type": "Feature", "properties": { "a": 131, "b": 132, "contrast": 0.122, "edge_support": 1.0, "boundary_m": 1.2, "confidence": "high", "component": 90, "status": "proposed_cut", "needs_review": true }, "geometry": { "type": "LineString", "coordinates": [ [ 600880.105540000135079, 8171145.047730000689626 ], [ 600881.305540000088513, 8171145.047730000689626 ] ] } },
{ "type": "Feature", "properties": { "a": 132, "b": 134, "contrast": 0.0795, "edge_support": 1.0, "boundary_m": 11.7, "confidence": "medium", "component": 90, "status": "proposed_cut", "needs_review": true }, "geometry": { "type": "LineString", "coordinates": [ [ 600878.90554000006523, 8171144.74773000087589 ], [ 600878.90554000006523, 8171144.447730001062155 ], [ 600878.605540000135079, 8171144.447730001062155 ], [ 600878.605540000135079, 8171143.547730000689626 ], [ 600878.305540000088513, 8171143.547730000689626 ], [ 600878.305540000088513, 8171142.347730000503361 ], [ 600878.005540000041947, 8171142.347730000503361 ], [ 600878.005540000041947, 8171141.74773000087589 ], [ 600877.705540000111796, 8171141.74773000087589 ], [ 600877.705540000111796, 8171137.847730000503361 ], [ 600878.005540000041947, 8171137.847730000503361 ], [ 600878.005540000041947, 8171137.547730000689626 ], [ 600878.305540000088513, 8171137.547730000689626 ], [ 600878.305540000088513, 8171137.24773000087589 ], [ 600880.40554000006523, 8171137.24773000087589 ], [ 600880.40554000006523, 8171136.947730001062155 ] ] } },
{ "type": "Feature", "properties": { "a": 136, "b": 137, "contrast": 0.1441, "edge_support": 1.0, "boundary_m": 3.6, "confidence": "high", "component": 90, "status": "proposed_cut", "needs_review": true }, "geometry": { "type": "LineString", "coordinates": [ [ 600875.90554000006523, 8171121.347730000503361 ], [ 600876.805540000088513, 8171121.347730000503361 ], [ 600876.805540000088513, 8171121.647730000317097 ], [ 600878.005540000041947, 8171121.647730000317097 ], [ 600878.005540000041947, 8171121.347730000503361 ], [ 600878.605540000135079, 8171121.347730000503361 ], [ 600878.605540000135079, 8171121.047730000689626 ] ] } },
{ "type": "Feature", "properties": { "a": 133, "b": 135, "contrast": 0.0459, "edge_support": 1.0, "boundary_m": 8.1, "confidence": "medium", "component": 90, "status": "proposed_cut", "needs_review": true }, "geometry": { "type": "LineString", "coordinates": [ [ 600884.605540000135079, 8171133.947730001062155 ], [ 600885.805540000088513, 8171133.947730001062155 ], [ 600885.805540000088513, 8171134.24773000087589 ], [ 600886.40554000006523, 8171134.24773000087589 ], [ 600886.40554000006523, 8171133.947730001062155 ], [ 600888.505540000041947, 8171133.947730001062155 ], [ 600888.505540000041947, 8171133.647730000317097 ], [ 600889.40554000006523, 8171133.647730000317097 ], [ 600889.40554000006523, 8171133.047730000689626 ], [ 600889.705540000111796, 8171133.047730000689626 ], [ 600889.705540000111796, 8171131.547730000689626 ] ] } },
{ "type": "Feature", "properties": { "a": 131, "b": 134, "contrast": 0.0425, "edge_support": 1.0, "boundary_m": 2.1, "confidence": "medium", "component": 90, "status": "proposed_cut", "needs_review": true }, "geometry": { "type": "MultiLineString", "coordinates": [ [ [ 600878.305540000088513, 8171146.547730000689626 ], [ 600878.305540000088513, 8171145.947730001062155 ] ], [ [ 600878.605540000135079, 8171148.047730000689626 ], [ 600878.605540000135079, 8171147.447730001062155 ], [ 600878.305540000088513, 8171147.447730001062155 ], [ 600878.305540000088513, 8171146.847730000503361 ] ] ] } },
{ "type": "Feature", "properties": { "a": 140, "b": 141, "contrast": 0.0529, "edge_support": 1.0, "boundary_m": 15.9, "confidence": "medium", "component": 91, "status": "proposed_cut", "needs_review": true }, "geometry": { "type": "LineString", "coordinates": [ [ 600820.105540000135079, 8171097.947730001062155 ], [ 600820.105540000135079, 8171098.547730000689626 ], [ 600819.805540000088513, 8171098.547730000689626 ], [ 600819.805540000088513, 8171099.447730001062155 ], [ 600820.105540000135079, 8171099.447730001062155 ], [ 600820.105540000135079, 8171100.047730000689626 ], [ 600820.40554000006523, 8171100.047730000689626 ], [ 600820.40554000006523, 8171100.347730000503361 ], [ 600820.705540000111796, 8171100.347730000503361 ], [ 600820.705540000111796, 8171100.647730000317097 ], [ 600821.305540000088513, 8171100.647730000317097 ], [ 600821.305540000088513, 8171100.947730001062155 ], [ 600821.90554000006523, 8171100.947730001062155 ], [ 600821.90554000006523, 8171100.647730000317097 ], [ 600822.805540000088513, 8171100.647730000317097 ], [ 600822.805540000088513, 8171099.74773000087589 ], [ 600823.105540000135079, 8171099.74773000087589 ], [ 600823.105540000135079, 8171099.147730000317097 ], [ 600823.705540000111796, 8171099.147730000317097 ], [ 600823.705540000111796, 8171098.847730000503361 ], [ 600827.005540000041947, 8171098.847730000503361 ], [ 600827.005540000041947, 8171099.147730000317097 ], [ 600827.305540000088513, 8171099.147730000317097 ], [ 600827.305540000088513, 8171099.447730001062155 ], [ 600827.605540000135079, 8171099.447730001062155 ], [ 600827.605540000135079, 8171101.24773000087589 ], [ 600827.90554000006523, 8171101.24773000087589 ] ] } },
{ "type": "Feature", "properties": { "a": 142, "b": 143, "contrast": 0.1289, "edge_support": 1.0, "boundary_m": 6.6, "confidence": "high", "component": 91, "status": "proposed_cut", "needs_review": true }, "geometry": { "type": "LineString", "coordinates": [ [ 600820.40554000006523, 8171091.647730000317097 ], [ 600820.705540000111796, 8171091.647730000317097 ], [ 600820.705540000111796, 8171092.24773000087589 ], [ 600821.005540000041947, 8171092.24773000087589 ], [ 600821.005540000041947, 8171093.74773000087589 ], [ 600821.305540000088513, 8171093.74773000087589 ], [ 600821.305540000088513, 8171096.74773000087589 ], [ 600821.605540000135079, 8171096.74773000087589 ], [ 600821.605540000135079, 8171097.047730000689626 ] ] } },
{ "type": "Feature", "properties": { "a": 141, "b": 143, "contrast": 0.1878, "edge_support": 1.0, "boundary_m": 4.2, "confidence": "high", "component": 91, "status": "proposed_cut", "needs_review": true }, "geometry": { "type": "LineString", "coordinates": [ [ 600823.105540000135079, 8171097.047730000689626 ], [ 600823.40554000006523, 8171097.047730000689626 ], [ 600823.40554000006523, 8171096.74773000087589 ], [ 600825.205540000111796, 8171096.74773000087589 ], [ 600825.205540000111796, 8171096.447730001062155 ], [ 600826.105540000135079, 8171096.447730001062155 ], [ 600826.105540000135079, 8171096.147730000317097 ], [ 600826.40554000006523, 8171096.147730000317097 ] ] } },
{ "type": "Feature", "properties": { "a": 138, "b": 139, "contrast": 0.1107, "edge_support": 1.0, "boundary_m": 5.1, "confidence": "high", "component": 91, "status": "proposed_cut", "needs_review": true }, "geometry": { "type": "LineString", "coordinates": [ [ 600813.505540000041947, 8171142.947730001062155 ], [ 600818.005540000041947, 8171142.947730001062155 ], [ 600818.005540000041947, 8171142.647730000317097 ], [ 600818.305540000088513, 8171142.647730000317097 ] ] } },
{ "type": "Feature", "properties": { "a": 139, "b": 140, "contrast": 0.0693, "edge_support": 1.0, "boundary_m": 16.8, "confidence": "medium", "component": 91, "status": "proposed_cut", "needs_review": true }, "geometry": { "type": "LineString", "coordinates": [ [ 600815.305540000088513, 8171108.74773000087589 ], [ 600815.90554000006523, 8171108.74773000087589 ], [ 600815.90554000006523, 8171109.347730000503361 ], [ 600816.205540000111796, 8171109.347730000503361 ], [ 600816.205540000111796, 8171109.047730000689626 ], [ 600816.505540000041947, 8171109.047730000689626 ], [ 600816.505540000041947, 8171109.347730000503361 ], [ 600822.805540000088513, 8171109.347730000503361 ], [ 600822.805540000088513, 8171109.047730000689626 ], [ 600823.40554000006523, 8171109.047730000689626 ], [ 600823.40554000006523, 8171108.74773000087589 ], [ 600824.005540000041947, 8171108.74773000087589 ], [ 600824.005540000041947, 8171108.447730001062155 ], [ 600824.305540000088513, 8171108.447730001062155 ], [ 600824.305540000088513, 8171108.147730000317097 ], [ 600826.705540000111796, 8171108.147730000317097 ], [ 600826.705540000111796, 8171107.547730000689626 ], [ 600827.005540000041947, 8171107.547730000689626 ], [ 600827.005540000041947, 8171107.24773000087589 ], [ 600827.305540000088513, 8171107.24773000087589 ], [ 600827.305540000088513, 8171106.947730001062155 ], [ 600827.605540000135079, 8171106.947730001062155 ], [ 600827.605540000135079, 8171106.647730000317097 ], [ 600828.205540000111796, 8171106.647730000317097 ] ] } },
{ "type": "Feature", "properties": { "a": 146, "b": 147, "contrast": 0.0562, "edge_support": 1.0, "boundary_m": 9.6, "confidence": "medium", "component": 94, "status": "proposed_cut", "needs_review": true }, "geometry": { "type": "LineString", "coordinates": [ [ 600852.805540000088513, 8171146.547730000689626 ], [ 600852.805540000088513, 8171145.947730001062155 ], [ 600853.105540000135079, 8171145.947730001062155 ], [ 600853.105540000135079, 8171145.047730000689626 ], [ 600852.805540000088513, 8171145.047730000689626 ], [ 600852.805540000088513, 8171144.74773000087589 ], [ 600853.105540000135079, 8171144.74773000087589 ], [ 600853.105540000135079, 8171143.547730000689626 ], [ 600853.40554000006523, 8171143.547730000689626 ], [ 600853.40554000006523, 8171142.347730000503361 ], [ 600853.705540000111796, 8171142.347730000503361 ], [ 600853.705540000111796, 8171138.447730001062155 ] ] } },
{ "type": "Feature", "properties": { "a": 149, "b": 150, "contrast": 0.0663, "edge_support": 1.0, "boundary_m": 8.1, "confidence": "medium", "component": 96, "status": "proposed_cut", "needs_review": true }, "geometry": { "type": "LineString", "coordinates": [ [ 600747.205540000111796, 8171133.347730000503361 ], [ 600747.205540000111796, 8171133.647730000317097 ], [ 600746.90554000006523, 8171133.647730000317097 ], [ 600746.90554000006523, 8171134.24773000087589 ], [ 600746.305540000088513, 8171134.24773000087589 ], [ 600746.305540000088513, 8171134.547730000689626 ], [ 600746.005540000041947, 8171134.547730000689626 ], [ 600746.005540000041947, 8171135.74773000087589 ], [ 600746.305540000088513, 8171135.74773000087589 ], [ 600746.305540000088513, 8171137.547730000689626 ], [ 600746.605540000135079, 8171137.547730000689626 ], [ 600746.605540000135079, 8171139.647730000317097 ] ] } },
{ "type": "Feature", "properties": { "a": 157, "b": 158, "contrast": 0.0501, "edge_support": 1.0, "boundary_m": 5.4, "confidence": "medium", "component": 103, "status": "proposed_cut", "needs_review": true }, "geometry": { "type": "LineString", "coordinates": [ [ 600756.505540000041947, 8171126.74773000087589 ], [ 600756.505540000041947, 8171126.447730001062155 ], [ 600761.005540000041947, 8171126.447730001062155 ], [ 600761.005540000041947, 8171125.847730000503361 ] ] } },
{ "type": "Feature", "properties": { "a": 161, "b": 162, "contrast": 0.0434, "edge_support": 1.0, "boundary_m": 27.0, "confidence": "medium", "component": 106, "status": "proposed_cut", "needs_review": true }, "geometry": { "type": "LineString", "coordinates": [ [ 600852.805540000088513, 8171125.847730000503361 ], [ 600852.505540000041947, 8171125.847730000503361 ], [ 600852.505540000041947, 8171126.147730000317097 ], [ 600851.90554000006523, 8171126.147730000317097 ], [ 600851.90554000006523, 8171126.447730001062155 ], [ 600851.305540000088513, 8171126.447730001062155 ], [ 600851.305540000088513, 8171126.147730000317097 ], [ 600851.005540000041947, 8171126.147730000317097 ], [ 600851.005540000041947, 8171124.947730001062155 ], [ 600850.705540000111796, 8171124.947730001062155 ], [ 600850.705540000111796, 8171124.347730000503361 ], [ 600850.40554000006523, 8171124.347730000503361 ], [ 600850.40554000006523, 8171123.74773000087589 ], [ 600850.105540000135079, 8171123.74773000087589 ], [ 600850.105540000135079, 8171123.447730001062155 ], [ 600849.805540000088513, 8171123.447730001062155 ], [ 600849.805540000088513, 8171122.847730000503361 ], [ 600850.105540000135079, 8171122.847730000503361 ], [ 600850.105540000135079, 8171122.547730000689626 ], [ 600850.40554000006523, 8171122.547730000689626 ], [ 600850.40554000006523, 8171121.947730001062155 ], [ 600850.705540000111796, 8171121.947730001062155 ], [ 600850.705540000111796, 8171120.447730001062155 ], [ 600850.40554000006523, 8171120.447730001062155 ], [ 600850.40554000006523, 8171119.547730000689626 ], [ 600850.705540000111796, 8171119.547730000689626 ], [ 600850.705540000111796, 8171118.947730001062155 ], [ 600851.005540000041947, 8171118.947730001062155 ], [ 600851.005540000041947, 8171118.647730000317097 ], [ 600851.305540000088513, 8171118.647730000317097 ], [ 600851.305540000088513, 8171118.947730001062155 ], [ 600851.605540000135079, 8171118.947730001062155 ], [ 600851.605540000135079, 8171119.547730000689626 ], [ 600851.90554000006523, 8171119.547730000689626 ], [ 600851.90554000006523, 8171120.74773000087589 ], [ 600852.505540000041947, 8171120.74773000087589 ], [ 600852.505540000041947, 8171121.047730000689626 ], [ 600853.105540000135079, 8171121.047730000689626 ], [ 600853.105540000135079, 8171120.74773000087589 ], [ 600853.40554000006523, 8171120.74773000087589 ], [ 600853.40554000006523, 8171121.047730000689626 ], [ 600853.705540000111796, 8171121.047730000689626 ], [ 600853.705540000111796, 8171120.74773000087589 ], [ 600854.005540000041947, 8171120.74773000087589 ], [ 600854.005540000041947, 8171120.447730001062155 ], [ 600854.305540000088513, 8171120.447730001062155 ], [ 600854.305540000088513, 8171120.147730000317097 ], [ 600854.605540000135079, 8171120.147730000317097 ], [ 600854.605540000135079, 8171119.24773000087589 ], [ 600854.90554000006523, 8171119.24773000087589 ], [ 600854.90554000006523, 8171118.947730001062155 ], [ 600855.505540000041947, 8171118.947730001062155 ], [ 600855.505540000041947, 8171119.24773000087589 ], [ 600855.805540000088513, 8171119.24773000087589 ], [ 600855.805540000088513, 8171119.847730000503361 ], [ 600856.105540000135079, 8171119.847730000503361 ], [ 600856.105540000135079, 8171120.447730001062155 ], [ 600858.205540000111796, 8171120.447730001062155 ] ] } },
{ "type": "Feature", "properties": { "a": 164, "b": 165, "contrast": 0.0489, "edge_support": 1.0, "boundary_m": 7.5, "confidence": "medium", "component": 108, "status": "proposed_cut", "needs_review": true }, "geometry": { "type": "LineString", "coordinates": [ [ 600861.505540000041947, 8171115.647730000317097 ], [ 600862.105540000135079, 8171115.647730000317097 ], [ 600862.105540000135079, 8171115.347730000503361 ], [ 600864.505540000041947, 8171115.347730000503361 ], [ 600864.505540000041947, 8171115.647730000317097 ], [ 600864.805540000088513, 8171115.647730000317097 ], [ 600864.805540000088513, 8171115.947730001062155 ], [ 600865.40554000006523, 8171115.947730001062155 ], [ 600865.40554000006523, 8171115.047730000689626 ], [ 600865.705540000111796, 8171115.047730000689626 ], [ 600865.705540000111796, 8171113.547730000689626 ] ] } },
{ "type": "Feature", "properties": { "a": 171, "b": 172, "contrast": 0.2177, "edge_support": 1.0, "boundary_m": 6.3, "confidence": "high", "component": 114, "status": "proposed_cut", "needs_review": true }, "geometry": { "type": "GeometryCollection", "geometries": [ { "type": "LineString", "coordinates": [ [ 600784.40554000006523, 8171107.847730000503361 ], [ 600784.40554000006523, 8171107.547730000689626 ] ] }, { "type": "LineString", "coordinates": [ [ 600784.40554000006523, 8171107.547730000689626 ], [ 600784.705540000111796, 8171107.547730000689626 ] ] }, { "type": "LineString", "coordinates": [ [ 600784.705540000111796, 8171107.547730000689626 ], [ 600784.705540000111796, 8171107.24773000087589 ] ] }, { "type": "LineString", "coordinates": [ [ 600784.705540000111796, 8171107.24773000087589 ], [ 600785.005540000041947, 8171107.24773000087589 ] ] }, { "type": "LineString", "coordinates": [ [ 600785.005540000041947, 8171107.24773000087589 ], [ 600785.005540000041947, 8171106.947730001062155 ] ] }, { "type": "LineString", "coordinates": [ [ 600785.005540000041947, 8171106.947730001062155 ], [ 600785.305540000088513, 8171106.947730001062155 ] ] }, { "type": "LineString", "coordinates": [ [ 600785.305540000088513, 8171106.947730001062155 ], [ 600785.305540000088513, 8171106.647730000317097 ] ] }, { "type": "LineString", "coordinates": [ [ 600785.305540000088513, 8171106.647730000317097 ], [ 600786.505540000041947, 8171106.647730000317097 ] ] }, { "type": "LineString", "coordinates": [ [ 600786.505540000041947, 8171106.647730000317097 ], [ 600786.505540000041947, 8171106.347730000503361 ] ] }, { "type": "LineString", "coordinates": [ [ 600786.505540000041947, 8171106.347730000503361 ], [ 600787.705540000111796, 8171106.347730000503361 ] ] }, { "type": "LineString", "coordinates": [ [ 600787.705540000111796, 8171106.347730000503361 ], [ 600787.705540000111796, 8171106.047730000689626 ] ] }, { "type": "LineString", "coordinates": [ [ 600787.705540000111796, 8171106.047730000689626 ], [ 600788.90554000006523, 8171106.047730000689626 ] ] }, { "type": "Point", "coordinates": [ 600783.805540000088513, 8171109.647730000317097 ] } ] } }
]
}
