{
"type": "FeatureCollection",
"name": "buildings",
"crs": { "type": "name", "properties": { "name": "urn:ogc:def:crs:EPSG::32719" } },
"features": [
{ "type": "Feature", "properties": { "id": 1, "mean_prob": 0.857, "area_m2": 110.6 }, "geometry": { "type": "Polygon", "coordinates": [ [ [ 600977.605540000135079, 8171307.547730000689626 ], [ 600977.205540000111796, 8171306.74773000087589 ], [ 600976.005540000041947, 8171306.74773000087589 ], [ 600976.005540000041947, 8171306.347730000503361 ], [ 600974.805540000088513, 8171306.347730000503361 ], [ 600974.805540000088513, 8171305.947730001062155 ], [ 600974.005540000041947, 8171305.947730001062155 ], [ 600974.005540000041947, 8171305.547730000689626 ], [ 600973.605540000135079, 8171305.547730000689626 ], [ 600973.205540000111796, 8171304.74773000087589 ], [ 600972.40554000006523, 8171304.74773000087589 ], [ 600972.40554000006523, 8171304.347730000503361 ], [ 600970.805540000088513, 8171303.947730001062155 ], [ 600970.805540000088513, 8171303.547730000689626 ], [ 600970.005540000041947, 8171303.547730000689626 ], [ 600970.005540000041947, 8171303.147730000317097 ], [ 600969.205540000111796, 8171302.74773000087589 ], [ 600969.205540000111796, 8171302.347730000503361 ], [ 600968.805540000088513, 8171302.347730000503361 ], [ 600968.805540000088513, 8171301.147730000317097 ], [ 600969.205540000111796, 8171301.147730000317097 ], [ 600969.205540000111796, 8171299.547730000689626 ], [ 600969.605540000135079, 8171299.547730000689626 ], [ 600969.605540000135079, 8171299.147730000317097 ], [ 600970.40554000006523, 8171298.74773000087589 ], [ 600970.40554000006523, 8171298.347730000503361 ], [ 600971.205540000111796, 8171298.347730000503361 ], [ 600971.205540000111796, 8171297.947730001062155 ], [ 600971.605540000135079, 8171297.947730001062155 ], [ 600971.605540000135079, 8171296.74773000087589 ], [ 600971.205540000111796, 8171296.74773000087589 ], [ 600971.205540000111796, 8171294.74773000087589 ], [ 600971.605540000135079, 8171294.74773000087589 ], [ 600971.605540000135079, 8171293.947730001062155 ], [ 600971.205540000111796, 8171293.947730001062155 ], [ 600971.205540000111796, 8171293.147730000317097 ], [ 600972.005540000041947, 8171293.147730000317097 ], [ 600972.005540000041947, 8171292.74773000087589 ], [ 600972.40554000006523, 8171292.74773000087589 ], [ 600972.40554000006523, 8171293.147730000317097 ], [ 600973.605540000135079, 8171293.147730000317097 ], [ 600973.605540000135079, 8171293.547730000689626 ], [ 600974.005540000041947, 8171293.547730000689626 ], [ 600974.40554000006523, 8171294.347730000503361 ], [ 600976.005540000041947, 8171294.74773000087589 ], [ 600976.40554000006523, 8171295.547730000689626 ], [ 600976.805540000088513, 8171295.547730000689626 ], [ 600976.805540000088513, 8171295.947730001062155 ], [ 600978.40554000006523, 8171296.347730000503361 ], [ 600978.40554000006523, 8171296.74773000087589 ], [ 600979.205540000111796, 8171297.147730000317097 ], [ 600979.605540000135079, 8171297.947730001062155 ], [ 600980.40554000006523, 8171298.347730000503361 ], [ 600980.40554000006523, 8171305.547730000689626 ], [ 600980.005540000041947, 8171305.547730000689626 ], [ 600980.005540000041947, 8171307.147730000317097 ], [ 600979.605540000135079, 8171307.147730000317097 ], [ 600979.605540000135079, 8171307.547730000689626 ], [ 600977.605540000135079, 8171307.547730000689626 ] ] ] } },
{ "type": "Feature", "properties": { "id": 2, "mean_prob": 0.924, "area_m2": 107.2 }, "geometry": { "type": "Polygon", "coordinates": [ [ [ 600976.40554000006523, 8171289.547730000689626 ], [ 600976.40554000006523, 8171289.147730000317097 ], [ 600976.005540000041947, 8171289.147730000317097 ], [ 600975.605540000135079, 8171288.347730000503361 ], [ 600974.805540000088513, 8171287.947730001062155 ], [ 600974.805540000088513, 8171287.547730000689626 ], [ 600973.205540000111796, 8171287.147730000317097 ], [ 600972.805540000088513, 8171286.347730000503361 ], [ 600972.005540000041947, 8171286.347730000503361 ], [ 600972.005540000041947, 8171285.547730000689626 ], [ 600971.605540000135079, 8171285.547730000689626 ], [ 600971.605540000135079, 8171285.147730000317097 ], [ 600970.805540000088513, 8171285.147730000317097 ], [ 600970.40554000006523, 8171284.347730000503361 ], [ 600969.605540000135079, 8171284.347730000503361 ], [ 600969.605540000135079, 8171283.947730001062155 ], [ 600968.805540000088513, 8171283.947730001062155 ], [ 600968.805540000088513, 8171283.547730000689626 ], [ 600968.40554000006523, 8171283.547730000689626 ], [ 600968.40554000006523, 8171281.147730000317097 ], [ 600968.805540000088513, 8171281.147730000317097 ], [ 600968.805540000088513, 8171280.347730000503361 ], [ 600969.205540000111796, 8171280.347730000503361 ], [ 600969.605540000135079, 8171277.147730000317097 ], [ 600970.40554000006523, 8171276.74773000087589 ], [ 600970.805540000088513, 8171275.947730001062155 ], [ 600971.205540000111796, 8171275.947730001062155 ], [ 600971.605540000135079, 8171275.147730000317097 ], [ 600972.40554000006523, 8171275.147730000317097 ], [ 600972.40554000006523, 8171274.74773000087589 ], [ 600974.40554000006523, 8171274.74773000087589 ], [ 600974.40554000006523, 8171275.147730000317097 ], [ 600975.605540000135079, 8171275.147730000317097 ], [ 600975.605540000135079, 8171275.547730000689626 ], [ 600976.40554000006523, 8171275.547730000689626 ], [ 600976.40554000006523, 8171275.947730001062155 ], [ 600976.805540000088513, 8171275.947730001062155 ], [ 600977.205540000111796, 8171276.74773000087589 ], [ 600977.605540000135079, 8171276.74773000087589 ], [ 600977.605540000135079, 8171278.74773000087589 ], [ 600978.005540000041947, 8171278.74773000087589 ], [ 600978.005540000041947, 8171281.147730000317097 ], [ 600978.40554000006523, 8171281.147730000317097 ], [ 600978.40554000006523, 8171283.947730001062155 ], [ 600978.805540000088513, 8171283.947730001062155 ], [ 600978.805540000088513, 8171286.347730000503361 ], [ 600979.205540000111796, 8171286.347730000503361 ], [ 600979.205540000111796, 8171289.147730000317097 ], [ 600978.40554000006523, 8171289.147730000317097 ], [ 600978.40554000006523, 8171289.547730000689626 ], [ 600976.40554000006523, 8171289.547730000689626 ] ] ] } },
{ "type": "Feature", "properties": { "id": 3, "mean_prob": 0.657, "area_m2": 24.0 }, "geometry": { "type": "Polygon", "coordinates": [ [ [ 600942.40554000006523, 8171239.547730000689626 ], [ 600942.40554000006523, 8171239.147730000317097 ], [ 600940.005540000041947, 8171239.147730000317097 ], [ 600940.005540000041947, 8171238.74773000087589 ], [ 600939.205540000111796, 8171238.74773000087589 ], [ 600939.205540000111796, 8171238.347730000503361 ], [ 600937.605540000135079, 8171237.947730001062155 ], [ 600937.605540000135079, 8171236.74773000087589 ], [ 600938.005540000041947, 8171236.74773000087589 ], [ 600938.005540000041947, 8171235.947730001062155 ], [ 600938.40554000006523, 8171235.947730001062155 ], [ 600938.40554000006523, 8171235.547730000689626 ], [ 600938.805540000088513, 8171235.547730000689626 ], [ 600938.805540000088513, 8171236.74773000087589 ], [ 600939.205540000111796, 8171236.74773000087589 ], [ 600939.205540000111796, 8171235.547730000689626 ], [ 600940.005540000041947, 8171235.547730000689626 ], [ 600940.005540000041947, 8171235.147730000317097 ], [ 600941.605540000135079, 8171235.147730000317097 ], [ 600942.005540000041947, 8171234.347730000503361 ], [ 600943.605540000135079, 8171233.947730001062155 ], [ 600943.605540000135079, 8171235.147730000317097 ], [ 600944.005540000041947, 8171235.147730000317097 ], [ 600944.005540000041947, 8171237.147730000317097 ], [ 600944.40554000006523, 8171237.147730000317097 ], [ 600944.40554000006523, 8171237.947730001062155 ], [ 600944.005540000041947, 8171237.947730001062155 ], [ 600944.005540000041947, 8171239.147730000317097 ], [ 600942.40554000006523, 8171239.547730000689626 ] ] ] } },
{ "type": "Feature", "properties": { "id": 4, "mean_prob": 0.837, "area_m2": 93.6 }, "geometry": { "type": "Polygon", "coordinates": [ [ [ 600733.205540000111796, 8171216.74773000087589 ], [ 600733.205540000111796, 8171216.347730000503361 ], [ 600731.205540000111796, 8171216.347730000503361 ], [ 600731.205540000111796, 8171215.947730001062155 ], [ 600726.805540000088513, 8171215.947730001062155 ], [ 600726.805540000088513, 8171215.547730000689626 ], [ 600724.805540000088513, 8171215.547730000689626 ], [ 600724.805540000088513, 8171215.947730001062155 ], [ 600724.005540000041947, 8171215.947730001062155 ], [ 600724.005540000041947, 8171215.147730000317097 ], [ 600723.205540000111796, 8171215.147730000317097 ], [ 600723.205540000111796, 8171214.74773000087589 ], [ 600723.605540000135079, 8171214.74773000087589 ], [ 600723.605540000135079, 8171214.347730000503361 ], [ 600724.005540000041947, 8171214.347730000503361 ], [ 600724.005540000041947, 8171213.547730000689626 ], [ 600724.40554000006523, 8171213.547730000689626 ], [ 600724.40554000006523, 8171212.347730000503361 ], [ 600724.005540000041947, 8171212.347730000503361 ], [ 600724.005540000041947, 8171211.547730000689626 ], [ 600724.40554000006523, 8171211.547730000689626 ], [ 600724.40554000006523, 8171209.947730001062155 ], [ 600725.205540000111796, 8171209.947730001062155 ], [ 600725.605540000135079, 8171209.147730000317097 ], [ 600728.005540000041947, 8171209.147730000317097 ], [ 600728.005540000041947, 8171209.547730000689626 ], [ 600728.805540000088513, 8171209.547730000689626 ], [ 600728.805540000088513, 8171209.947730001062155 ], [ 600729.605540000135079, 8171209.947730001062155 ], [ 600729.605540000135079, 8171210.347730000503361 ], [ 600732.805540000088513, 8171210.347730000503361 ], [ 600732.805540000088513, 8171210.74773000087589 ], [ 600736.005540000041947, 8171210.74773000087589 ], [ 600736.005540000041947, 8171210.347730000503361 ], [ 600738.40554000006523, 8171210.347730000503361 ], [ 600738.40554000006523, 8171210.74773000087589 ], [ 600739.205540000111796, 8171210.74773000087589 ], [ 600739.205540000111796, 8171211.147730000317097 ], [ 600739.605540000135079, 8171211.147730000317097 ], [ 600739.605540000135079, 8171213.147730000317097 ], [ 600739.205540000111796, 8171213.147730000317097 ], [ 600739.205540000111796, 8171214.347730000503361 ], [ 600739.605540000135079, 8171214.347730000503361 ], [ 600739.605540000135079, 8171215.947730001062155 ], [ 600738.805540000088513, 8171216.347730000503361 ], [ 600738.805540000088513, 8171216.74773000087589 ], [ 600733.205540000111796, 8171216.74773000087589 ] ] ] } },
{ "type": "Feature", "properties": { "id": 5, "mean_prob": 0.698, "area_m2": 2189.8 }, "geometry": { "type": "Polygon", "coordinates": [ [ [ 600833.205540000111796, 8171209.147730000317097 ], [ 600833.205540000111796, 8171208.74773000087589 ], [ 600831.605540000135079, 8171208.74773000087589 ], [ 600831.605540000135079, 8171208.347730000503361 ], [ 600829.605540000135079, 8171208.347730000503361 ], [ 600829.605540000135079, 8171207.947730001062155 ], [ 600828.805540000088513, 8171207.947730001062155 ], [ 600828.805540000088513, 8171208.347730000503361 ], [ 600828.005540000041947, 8171208.347730000503361 ], [ 600828.005540000041947, 8171207.947730001062155 ], [ 600826.805540000088513, 8171207.947730001062155 ], [ 600826.805540000088513, 8171207.547730000689626 ], [ 600826.40554000006523, 8171207.547730000689626 ], [ 600826.40554000006523, 8171206.74773000087589 ], [ 600826.005540000041947, 8171206.74773000087589 ], [ 600826.005540000041947, 8171206.347730000503361 ], [ 600826.40554000006523, 8171206.347730000503361 ], [ 600826.40554000006523, 8171205.547730000689626 ], [ 600826.005540000041947, 8171205.547730000689626 ], [ 600826.005540000041947, 8171205.147730000317097 ], [ 600822.805540000088513, 8171205.147730000317097 ], [ 600822.805540000088513, 8171204.74773000087589 ], [ 600822.40554000006523, 8171204.74773000087589 ], [ 600822.40554000006523, 8171203.547730000689626 ], [ 600822.005540000041947, 8171203.547730000689626 ], [ 600821.605540000135079, 8171202.74773000087589 ], [ 600820.005540000041947, 8171202.74773000087589 ], [ 600820.005540000041947, 8171201.947730001062155 ], [ 600819.605540000135079, 8171201.947730001062155 ], [ 600819.605540000135079, 8171199.547730000689626 ], [ 600819.205540000111796, 8171199.547730000689626 ], [ 600819.205540000111796, 8171199.147730000317097 ], [ 600818.40554000006523, 8171199.147730000317097 ], [ 600818.40554000006523, 8171198.74773000087589 ], [ 600817.605540000135079, 8171198.74773000087589 ], [ 600817.605540000135079, 8171198.347730000503361 ], [ 600816.805540000088513, 8171197.947730001062155 ], [ 600816.805540000088513, 8171197.147730000317097 ], [ 600816.005540000041947, 8171197.147730000317097 ], [ 600816.005540000041947, 8171195.947730001062155 ], [ 600813.605540000135079, 8171195.547730000689626 ], [ 600813.605540000135079, 8171194.74773000087589 ], [ 600812.805540000088513, 8171194.347730000503361 ], [ 600812.805540000088513, 8171193.547730000689626 ], [ 600813.605540000135079, 8171193.547730000689626 ], [ 600813.605540000135079, 8171192.347730000503361 ], [ 600812.805540000088513, 8171191.947730001062155 ], [ 600812.805540000088513, 8171191.547730000689626 ], [ 600812.005540000041947, 8171191.547730000689626 ], [ 600812.005540000041947, 8171190.74773000087589 ], [ 600809.605540000135079, 8171190.74773000087589 ], [ 600809.205540000111796, 8171191.547730000689626 ], [ 600808.805540000088513, 8171191.547730000689626 ], [ 600808.805540000088513, 8171191.147730000317097 ], [ 600808.005540000041947, 8171191.147730000317097 ], [ 600808.005540000041947, 8171191.547730000689626 ], [ 600807.605540000135079, 8171191.547730000689626 ], [ 600807.205540000111796, 8171189.947730001062155 ], [ 600805.605540000135079, 8171189.947730001062155 ], [ 600805.205540000111796, 8171189.147730000317097 ], [ 600804.40554000006523, 8171189.147730000317097 ], [ 600804.40554000006523, 8171187.147730000317097 ], [ 600804.805540000088513, 8171187.147730000317097 ], [ 600804.805540000088513, 8171186.347730000503361 ], [ 600804.40554000006523, 8171186.347730000503361 ], [ 600804.40554000006523, 8171185.547730000689626 ], [ 600804.005540000041947, 8171185.547730000689626 ], [ 600803.605540000135079, 8171179.147730000317097 ], [ 600803.205540000111796, 8171179.147730000317097 ], [ 600803.205540000111796, 8171177.147730000317097 ], [ 600802.805540000088513, 8171177.147730000317097 ], [ 600802.805540000088513, 8171175.947730001062155 ], [ 600802.40554000006523, 8171175.947730001062155 ], [ 600802.40554000006523, 8171173.547730000689626 ], [ 600802.805540000088513, 8171173.547730000689626 ], [ 600802.805540000088513, 8171168.347730000503361 ], [ 600802.40554000006523, 8171168.347730000503361 ], [ 600802.40554000006523, 8171167.947730001062155 ], [ 600802.805540000088513, 8171167.947730001062155 ], [ 600802.805540000088513, 8171165.547730000689626 ], [ 600803.205540000111796, 8171165.547730000689626 ], [ 600803.205540000111796, 8171164.74773000087589 ], [ 600803.605540000135079, 8171164.74773000087589 ], [ 600803.605540000135079, 8171164.347730000503361 ], [ 600804.40554000006523, 8171164.347730000503361 ], [ 600804.40554000006523, 8171163.947730001062155 ], [ 600813.605540000135079, 8171163.947730001062155 ], [ 600813.605540000135079, 8171163.547730000689626 ], [ 600816.40554000006523, 8171163.547730000689626 ], [ 600816.40554000006523, 8171163.947730001062155 ], [ 600818.005540000041947, 8171163.947730001062155 ], [ 600818.40554000006523, 8171164.74773000087589 ], [ 600818.805540000088513, 8171164.74773000087589 ], [ 600818.805540000088513, 8171166.347730000503361 ], [ 600819.205540000111796, 8171166.347730000503361 ], [ 600819.205540000111796, 8171167.147730000317097 ], [ 600819.605540000135079, 8171167.147730000317097 ], [ 600820.005540000041947, 8171168.74773000087589 ], [ 600820.805540000088513, 8171169.147730000317097 ], [ 600820.805540000088513, 8171169.947730001062155 ], [ 600821.605540000135079, 8171170.347730000503361 ], [ 600821.605540000135079, 8171171.147730000317097 ], [ 600822.40554000006523, 8171171.147730000317097 ], [ 600822.805540000088513, 8171171.947730001062155 ], [ 600824.40554000006523, 8171172.347730000503361 ], [ 600824.40554000006523, 8171172.74773000087589 ], [ 600831.205540000111796, 8171172.74773000087589 ], [ 600831.205540000111796, 8171172.347730000503361 ], [ 600832.005540000041947, 8171172.347730000503361 ], [ 600832.005540000041947, 8171171.947730001062155 ], [ 600832.40554000006523, 8171171.947730001062155 ], [ 600832.40554000006523, 8171169.147730000317097 ], [ 600831.605540000135079, 8171169.147730000317097 ], [ 600831.605540000135079, 8171168.74773000087589 ], [ 600831.205540000111796, 8171168.74773000087589 ], [ 600831.205540000111796, 8171167.947730001062155 ], [ 600830.005540000041947, 8171167.947730001062155 ], [ 600830.005540000041947, 8171163.947730001062155 ], [ 600830.40554000006523, 8171163.947730001062155 ], [ 600830.40554000006523, 8171163.547730000689626 ], [ 600832.005540000041947, 8171163.547730000689626 ], [ 600832.005540000041947, 8171163.947730001062155 ], [ 600832.805540000088513, 8171164.347730000503361 ], [ 600832.805540000088513, 8171165.547730000689626 ], [ 600833.205540000111796, 8171165.547730000689626 ], [ 600833.205540000111796, 8171166.347730000503361 ], [ 600834.005540000041947, 8171166.74773000087589 ], [ 600834.005540000041947, 8171166.347730000503361 ], [ 600834.40554000006523, 8171166.347730000503361 ], [ 600834.40554000006523, 8171163.547730000689626 ], [ 600834.805540000088513, 8171163.547730000689626 ], [ 600834.805540000088513, 8171163.147730000317097 ], [ 600836.40554000006523, 8171163.147730000317097 ], [ 600836.40554000006523, 8171165.547730000689626 ], [ 600836.805540000088513, 8171165.547730000689626 ], [ 600836.805540000088513, 8171167.147730000317097 ], [ 600837.205540000111796, 8171167.147730000317097 ], [ 600837.205540000111796, 8171167.547730000689626 ], [ 600837.605540000135079, 8171167.547730000689626 ], [ 600837.605540000135079, 8171168.347730000503361 ], [ 600838.40554000006523, 8171168.74773000087589 ], [ 600838.005540000041947, 8171169.547730000689626 ], [ 600839.205540000111796, 8171169.547730000689626 ], [ 600839.605540000135079, 8171171.147730000317097 ], [ 600842.005540000041947, 8171171.547730000689626 ], [ 600842.40554000006523, 8171172.347730000503361 ], [ 600844.005540000041947, 8171172.347730000503361 ], [ 600844.005540000041947, 8171172.74773000087589 ], [ 600845.605540000135079, 8171172.74773000087589 ], [ 600845.605540000135079, 8171172.347730000503361 ], [ 600847.205540000111796, 8171172.74773000087589 ], [ 600847.205540000111796, 8171172.347730000503361 ], [ 600848.40554000006523, 8171172.347730000503361 ], [ 600848.805540000088513, 8171171.547730000689626 ], [ 600850.40554000006523, 8171171.547730000689626 ], [ 600850.40554000006523, 8171171.947730001062155 ], [ 600852.005540000041947, 8171171.547730000689626 ], [ 600852.005540000041947, 8171170.347730000503361 ], [ 600852.805540000088513, 8171169.947730001062155 ], [ 600852.805540000088513, 8171169.547730000689626 ], [ 600852.40554000006523, 8171169.547730000689626 ], [ 600852.40554000006523, 8171168.347730000503361 ], [ 600852.005540000041947, 8171168.347730000503361 ], [ 600852.005540000041947, 8171167.947730001062155 ], [ 600849.205540000111796, 8171167.947730001062155 ], [ 600848.805540000088513, 8171167.147730000317097 ], [ 600849.205540000111796, 8171167.147730000317097 ], [ 600849.205540000111796, 8171166.74773000087589 ], [ 600850.005540000041947, 8171166.74773000087589 ], [ 600850.005540000041947, 8171166.347730000503361 ], [ 600848.805540000088513, 8171166.347730000503361 ], [ 600848.805540000088513, 8171165.547730000689626 ], [ 600847.205540000111796, 8171165.547730000689626 ], [ 600847.205540000111796, 8171165.947730001062155 ], [ 600845.605540000135079, 8171165.547730000689626 ], [ 600845.605540000135079, 8171166.347730000503361 ], [ 600844.40554000006523, 8171166.347730000503361 ], [ 600844.40554000006523, 8171165.947730001062155 ], [ 600843.605540000135079, 8171165.947730001062155 ], [ 600843.605540000135079, 8171163.547730000689626 ], [ 600844.005540000041947, 8171163.547730000689626 ], [ 600844.005540000041947, 8171163.147730000317097 ], [ 600846.40554000006523, 8171163.147730000317097 ], [ 600846.40554000006523, 8171163.547730000689626 ], [ 600849.205540000111796, 8171163.547730000689626 ], [ 600849.205540000111796, 8171163.947730001062155 ], [ 600850.40554000006523, 8171163.947730001062155 ], [ 600850.40554000006523, 8171163.547730000689626 ], [ 600853.205540000111796, 8171163.547730000689626 ], [ 600853.205540000111796, 8171163.947730001062155 ], [ 600854.005540000041947, 8171163.947730001062155 ], [ 600854.005540000041947, 8171165.547730000689626 ], [ 600853.605540000135079, 8171165.547730000689626 ], [ 600853.605540000135079, 8171166.347730000503361 ], [ 600853.205540000111796, 8171166.347730000503361 ], [ 600853.205540000111796, 8171167.147730000317097 ], [ 600853.605540000135079, 8171167.147730000317097 ], [ 600853.605540000135079, 8171167.947730001062155 ], [ 600853.205540000111796, 8171167.947730001062155 ], [ 600853.205540000111796, 8171169.147730000317097 ], [ 600853.605540000135079, 8171169.147730000317097 ], [ 600853.605540000135079, 8171170.347730000503361 ], [ 600854.40554000006523, 8171170.74773000087589 ], [ 600854.40554000006523, 8171171.947730001062155 ], [ 600854.805540000088513, 8171171.947730001062155 ], [ 600854.805540000088513, 8171172.74773000087589 ], [ 600855.205540000111796, 8171172.74773000087589 ], [ 600855.205540000111796, 8171173.147730000317097 ], [ 600856.805540000088513, 8171173.147730000317097 ], [ 600856.805540000088513, 8171172.74773000087589 ], [ 600859.605540000135079, 8171172.74773000087589 ], [ 600860.005540000041947, 8171171.947730001062155 ], [ 600861.205540000111796, 8171171.947730001062155 ], [ 600861.205540000111796, 8171172.347730000503361 ], [ 600862.005540000041947, 8171172.347730000503361 ], [ 600862.005540000041947, 8171172.74773000087589 ], [ 600863.605540000135079, 8171172.74773000087589 ], [ 600863.605540000135079, 8171173.147730000317097 ], [ 600864.805540000088513, 8171173.147730000317097 ], [ 600864.805540000088513, 8171173.547730000689626 ], [ 600869.205540000111796, 8171173.547730000689626 ], [ 600869.205540000111796, 8171173.147730000317097 ], [ 600870.805540000088513, 8171172.74773000087589 ], [ 600870.805540000088513, 8171172.347730000503361 ], [ 600871.205540000111796, 8171172.347730000503361 ], [ 600871.205540000111796, 8171171.547730000689626 ], [ 600872.005540000041947, 8171171.547730000689626 ], [ 600872.005540000041947, 8171171.147730000317097 ], [ 600870.805540000088513, 8171171.147730000317097 ], [ 600870.805540000088513, 8171170.74773000087589 ], [ 600871.205540000111796, 8171170.74773000087589 ], [ 600871.205540000111796, 8171169.547730000689626 ], [ 600870.805540000088513, 8171169.547730000689626 ], [ 600870.805540000088513, 8171169.147730000317097 ], [ 600870.005540000041947, 8171169.547730000689626 ], [ 600870.005540000041947, 8171168.74773000087589 ], [ 600870.40554000006523, 8171168.74773000087589 ], [ 600870.40554000006523, 8171168.347730000503361 ], [ 600869.605540000135079, 8171167.947730001062155 ], [ 600869.605540000135079, 8171166.74773000087589 ], [ 600870.005540000041947, 8171166.74773000087589 ], [ 600869.605540000135079, 8171165.947730001062155 ], [ 600870.005540000041947, 8171165.947730001062155 ], [ 600870.005540000041947, 8171165.547730000689626 ], [ 600869.605540000135079, 8171165.547730000689626 ], [ 600869.605540000135079, 8171165.147730000317097 ], [ 600868.805540000088513, 8171165.547730000689626 ], [ 600868.805540000088513, 8171165.147730000317097 ], [ 600868.005540000041947, 8171164.74773000087589 ], [ 600868.005540000041947, 8171164.347730000503361 ], [ 600868.805540000088513, 8171164.347730000503361 ], [ 600868.805540000088513, 8171163.947730001062155 ], [ 600869.605540000135079, 8171164.347730000503361 ], [ 600870.005540000041947, 8171163.547730000689626 ], [ 600870.805540000088513, 8171163.547730000689626 ], [ 600870.805540000088513, 8171163.147730000317097 ], [ 600873.205540000111796, 8171163.147730000317097 ], [ 600873.205540000111796, 8171163.547730000689626 ], [ 600873.605540000135079, 8171163.547730000689626 ], [ 600873.605540000135079, 8171164.74773000087589 ], [ 600874.40554000006523, 8171165.147730000317097 ], [ 600874.40554000006523, 8171166.347730000503361 ], [ 600874.805540000088513, 8171166.347730000503361 ], [ 600874.805540000088513, 8171166.74773000087589 ], [ 600876.005540000041947, 8171166.74773000087589 ], [ 600876.005540000041947, 8171171.147730000317097 ], [ 600875.205540000111796, 8171171.547730000689626 ], [ 600875.205540000111796, 8171172.347730000503361 ], [ 600874.805540000088513, 8171172.347730000503361 ], [ 600874.805540000088513, 8171175.547730000689626 ], [ 600874.40554000006523, 8171175.547730000689626 ], [ 600874.805540000088513, 8171177.947730001062155 ], [ 600875.205540000111796, 8171177.947730001062155 ], [ 600875.205540000111796, 8171178.74773000087589 ], [ 600876.005540000041947, 8171179.147730000317097 ], [ 600876.40554000006523, 8171179.947730001062155 ], [ 600877.205540000111796, 8171179.947730001062155 ], [ 600877.205540000111796, 8171180.74773000087589 ], [ 600878.005540000041947, 8171181.147730000317097 ], [ 600878.005540000041947, 8171182.347730000503361 ], [ 600878.40554000006523, 8171182.347730000503361 ], [ 600878.40554000006523, 8171183.147730000317097 ], [ 600878.005540000041947, 8171183.147730000317097 ], [ 600878.005540000041947, 8171184.347730000503361 ], [ 600878.805540000088513, 8171184.347730000503361 ], [ 600879.205540000111796, 8171185.947730001062155 ], [ 600880.805540000088513, 8171185.947730001062155 ], [ 600880.805540000088513, 8171186.74773000087589 ], [ 600881.605540000135079, 8171187.147730000317097 ], [ 600881.605540000135079, 8171187.547730000689626 ], [ 600882.40554000006523, 8171187.547730000689626 ], [ 600882.40554000006523, 8171187.947730001062155 ], [ 600882.005540000041947, 8171187.947730001062155 ], [ 600882.005540000041947, 8171189.147730000317097 ], [ 600882.805540000088513, 8171189.547730000689626 ], [ 600882.805540000088513, 8171191.147730000317097 ], [ 600883.605540000135079, 8171191.147730000317097 ], [ 600883.605540000135079, 8171191.547730000689626 ], [ 600884.005540000041947, 8171191.547730000689626 ], [ 600884.005540000041947, 8171192.74773000087589 ], [ 600880.40554000006523, 8171192.74773000087589 ], [ 600880.40554000006523, 8171193.147730000317097 ], [ 600880.005540000041947, 8171193.147730000317097 ], [ 600880.005540000041947, 8171192.74773000087589 ], [ 600876.40554000006523, 8171192.74773000087589 ], [ 600876.40554000006523, 8171193.147730000317097 ], [ 600872.005540000041947, 8171193.147730000317097 ], [ 600872.005540000041947, 8171192.74773000087589 ], [ 600871.605540000135079, 8171192.74773000087589 ], [ 600871.605540000135079, 8171193.147730000317097 ], [ 600866.40554000006523, 8171193.147730000317097 ], [ 600866.40554000006523, 8171193.547730000689626 ], [ 600862.005540000041947, 8171193.547730000689626 ], [ 600862.005540000041947, 8171193.947730001062155 ], [ 600856.805540000088513, 8171193.947730001062155 ], [ 600856.805540000088513, 8171194.74773000087589 ], [ 600856.005540000041947, 8171195.147730000317097 ], [ 600856.005540000041947, 8171195.547730000689626 ], [ 600854.805540000088513, 8171195.547730000689626 ], [ 600854.805540000088513, 8171195.947730001062155 ], [ 600853.605540000135079, 8171195.947730001062155 ], [ 600853.605540000135079, 8171195.547730000689626 ], [ 600853.205540000111796, 8171195.547730000689626 ], [ 600853.205540000111796, 8171194.74773000087589 ], [ 600852.805540000088513, 8171194.74773000087589 ], [ 600852.805540000088513, 8171193.547730000689626 ], [ 600852.40554000006523, 8171193.547730000689626 ], [ 600852.40554000006523, 8171193.147730000317097 ], [ 600851.605540000135079, 8171193.147730000317097 ], [ 600851.205540000111796, 8171193.947730001062155 ], [ 600848.40554000006523, 8171193.947730001062155 ], [ 600848.40554000006523, 8171194.347730000503361 ], [ 600848.005540000041947, 8171194.347730000503361 ], [ 600847.605540000135079, 8171195.147730000317097 ], [ 600846.805540000088513, 8171194.74773000087589 ], [ 600846.805540000088513, 8171195.147730000317097 ], [ 600846.005540000041947, 8171195.147730000317097 ], [ 600846.005540000041947, 8171195.547730000689626 ], [ 600844.805540000088513, 8171195.547730000689626 ], [ 600844.40554000006523, 8171196.347730000503361 ], [ 600843.205540000111796, 8171196.347730000503361 ], [ 600843.205540000111796, 8171196.74773000087589 ], [ 600842.40554000006523, 8171197.147730000317097 ], [ 600842.40554000006523, 8171198.74773000087589 ], [ 600842.805540000088513, 8171198.74773000087589 ], [ 600842.805540000088513, 8171199.547730000689626 ], [ 600843.205540000111796, 8171199.547730000689626 ], [ 600843.205540000111796, 8171199.947730001062155 ], [ 600843.605540000135079, 8171199.947730001062155 ], [ 600843.605540000135079, 8171202.347730000503361 ], [ 600843.205540000111796, 8171202.347730000503361 ], [ 600843.205540000111796, 8171202.74773000087589 ], [ 600842.40554000006523, 8171203.147730000317097 ], [ 600842.40554000006523, 8171205.147730000317097 ], [ 600841.605540000135079, 8171205.547730000689626 ], [ 600841.605540000135079, 8171207.547730000689626 ], [ 600841.205540000111796, 8171207.547730000689626 ], [ 600841.205540000111796, 8171207.947730001062155 ], [ 600840.40554000006523, 8171207.947730001062155 ], [ 600840.40554000006523, 8171208.347730000503361 ], [ 600837.605540000135079, 8171208.347730000503361 ], [ 600837.605540000135079, 8171208.74773000087589 ], [ 600834.40554000006523, 8171208.74773000087589 ], [ 600834.40554000006523, 8171209.147730000317097 ], [ 600833.205540000111796, 8171209.147730000317097 ] ], [ [ 600824.40554000006523, 8171203.947730001062155 ], [ 600824.805540000088513, 8171203.947730001062155 ], [ 600824.805540000088513, 8171203.147730000317097 ], [ 600824.40554000006523, 8171203.147730000317097 ], [ 600824.40554000006523, 8171203.947730001062155 ] ] ] } },
{ "type": "Feature", "properties": { "id": 6, "mean_prob": 0.841, "area_m2": 85.1 }, "geometry": { "type": "Polygon", "coordinates": [ [ [ 600812.805540000088513, 8171150.347730000503361 ], [ 600812.805540000088513, 8171149.947730001062155 ], [ 600811.205540000111796, 8171149.947730001062155 ], [ 600810.805540000088513, 8171149.147730000317097 ], [ 600810.005540000041947, 8171148.74773000087589 ], [ 600810.005540000041947, 8171145.147730000317097 ], [ 600809.605540000135079, 8171145.147730000317097 ], [ 600809.605540000135079, 8171143.547730000689626 ], [ 600810.005540000041947, 8171143.547730000689626 ], [ 600810.005540000041947, 8171142.347730000503361 ], [ 600810.40554000006523, 8171142.347730000503361 ], [ 600810.40554000006523, 8171141.547730000689626 ], [ 600812.40554000006523, 8171141.547730000689626 ], [ 600812.40554000006523, 8171141.947730001062155 ], [ 600813.605540000135079, 8171141.947730001062155 ], [ 600813.605540000135079, 8171142.347730000503361 ], [ 600815.605540000135079, 8171142.347730000503361 ], [ 600815.605540000135079, 8171142.74773000087589 ], [ 600816.40554000006523, 8171142.74773000087589 ], [ 600816.40554000006523, 8171143.147730000317097 ], [ 600818.40554000006523, 8171143.147730000317097 ], [ 600818.40554000006523, 8171143.547730000689626 ], [ 600820.005540000041947, 8171143.947730001062155 ], [ 600820.005540000041947, 8171144.74773000087589 ], [ 600820.805540000088513, 8171145.147730000317097 ], [ 600820.805540000088513, 8171145.547730000689626 ], [ 600821.605540000135079, 8171145.547730000689626 ], [ 600822.005540000041947, 8171147.147730000317097 ], [ 600822.40554000006523, 8171147.147730000317097 ], [ 600822.40554000006523, 8171148.347730000503361 ], [ 600822.805540000088513, 8171148.347730000503361 ], [ 600822.805540000088513, 8171149.147730000317097 ], [ 600822.40554000006523, 8171149.147730000317097 ], [ 600822.40554000006523, 8171149.547730000689626 ], [ 600821.605540000135079, 8171149.547730000689626 ], [ 600821.605540000135079, 8171149.947730001062155 ], [ 600820.40554000006523, 8171149.947730001062155 ], [ 600820.40554000006523, 8171150.347730000503361 ], [ 600818.005540000041947, 8171150.347730000503361 ], [ 600818.005540000041947, 8171149.947730001062155 ], [ 600814.005540000041947, 8171149.947730001062155 ], [ 600814.005540000041947, 8171150.347730000503361 ], [ 600812.805540000088513, 8171150.347730000503361 ] ] ] } }
]
}
