{
"type": "FeatureCollection",
"name": "buildings_wgs84",
"crs": { "type": "name", "properties": { "name": "urn:ogc:def:crs:OGC:1.3:CRS84" } },
"features": [
{ "type": "Feature", "properties": { "id": 1, "mean_prob": 0.857, "area_m2": 110.6 }, "geometry": { "type": "Polygon", "coordinates": [ [ [ -68.053671875166657, -16.53806893825643 ], [ -68.053675588213423, -16.538076186226824 ], [ -68.053686833098595, -16.538076237225372 ], [ -68.053686815474734, -16.538079852710762 ], [ -68.053698060360148, -16.53807990370872 ], [ -68.053698042736471, -16.53808351919411 ], [ -68.053705539326913, -16.538083553192422 ], [ -68.053705521703392, -16.538087168677826 ], [ -68.053709269998691, -16.538087185676879 ], [ -68.053712983047191, -16.538094433646691 ], [ -68.053720479638088, -16.538094467644484 ], [ -68.053720462014823, -16.538098083129899 ], [ -68.053735437573948, -16.538101766610129 ], [ -68.053735419950968, -16.538105382095555 ], [ -68.053742916542333, -16.538105416092559 ], [ -68.053742898919467, -16.538109031578006 ], [ -68.053750377888264, -16.538112681060188 ], [ -68.053750360265553, -16.538116296545628 ], [ -68.053754108561449, -16.53811631354391 ], [ -68.05375405569346, -16.538127160000233 ], [ -68.053750307397337, -16.538127143001951 ], [ -68.053750236906353, -16.538141604943672 ], [ -68.05374648860996, -16.538141587945294 ], [ -68.053746470987136, -16.53814520343073 ], [ -68.053738956771241, -16.538148784919183 ], [ -68.053738939148275, -16.538152400404602 ], [ -68.053731442555105, -16.538152366407353 ], [ -68.053731424931982, -16.538155981892757 ], [ -68.053727676635333, -16.538155964894028 ], [ -68.053727623765738, -16.53816681135023 ], [ -68.053731372062586, -16.53816682834897 ], [ -68.053731283946846, -16.538184905775967 ], [ -68.053727535649642, -16.538184888777209 ], [ -68.053727500403184, -16.538192119747986 ], [ -68.053731248700515, -16.538192136746751 ], [ -68.053731213454171, -16.538199367717546 ], [ -68.05372371685921, -16.53819933371993 ], [ -68.053723699235888, -16.53820294920531 ], [ -68.053719950938344, -16.538202932206396 ], [ -68.053719968561737, -16.538199316721016 ], [ -68.053708723669345, -16.538199265723886 ], [ -68.053708741292937, -16.538195650238517 ], [ -68.053704992995534, -16.538195633239347 ], [ -68.053701279945614, -16.538188385269379 ], [ -68.053686304380676, -16.538184701786413 ], [ -68.053682591331651, -16.538177453816164 ], [ -68.053678843034632, -16.538177436816532 ], [ -68.053678860658763, -16.538173821331181 ], [ -68.053663885095446, -16.538170137846699 ], [ -68.053663902719848, -16.538166522361365 ], [ -68.053656423750823, -16.538162872876072 ], [ -68.053652710703318, -16.53815562490534 ], [ -68.053645231734933, -16.53815197541968 ], [ -68.053645548979276, -16.538086896683758 ], [ -68.05364929727449, -16.538086913683895 ], [ -68.053649367772763, -16.538072451742508 ], [ -68.053653116067707, -16.538072468742563 ], [ -68.053653133692194, -16.538068853257204 ], [ -68.053671875166657, -16.53806893825643 ] ] ] } },
{ "type": "Feature", "properties": { "id": 2, "mean_prob": 0.924, "area_m2": 107.2 }, "geometry": { "type": "Polygon", "coordinates": [ [ [ -68.053682326970275, -16.538231686096232 ], [ -68.053682309346158, -16.538235301581562 ], [ -68.053686057644285, -16.538235318581183 ], [ -68.053689770694433, -16.538242566551403 ], [ -68.053697249667138, -16.538246216035667 ], [ -68.053697232043277, -16.538249831521 ], [ -68.053712207613415, -16.538253515003429 ], [ -68.053715920664871, -16.538260762973238 ], [ -68.053723417262191, -16.538260796971258 ], [ -68.053723382015392, -16.538268027941974 ], [ -68.053727130314201, -16.538268044940896 ], [ -68.053727112690879, -16.538271660426258 ], [ -68.053734609288639, -16.538271694423905 ], [ -68.05373832234126, -16.538278942393358 ], [ -68.053745818939333, -16.538278976390608 ], [ -68.053745801316339, -16.538282591875983 ], [ -68.053753297914568, -16.538282625872974 ], [ -68.053753280291701, -16.53828624135836 ], [ -68.053757028590894, -16.538286258356763 ], [ -68.053756922854049, -16.538307951269072 ], [ -68.053753174554444, -16.538307934270648 ], [ -68.053753139308654, -16.538315165241396 ], [ -68.053749391008907, -16.538315148242894 ], [ -68.05374550172472, -16.538344055127226 ], [ -68.053737987500924, -16.538347636615178 ], [ -68.053734203953979, -16.538354850587055 ], [ -68.053730455653493, -16.53835483358818 ], [ -68.053726672106123, -16.538362047559904 ], [ -68.053719175504895, -16.538362013561798 ], [ -68.053719157881318, -16.538365629047114 ], [ -68.053700416377936, -16.538365544050659 ], [ -68.053700434001883, -16.538361928565362 ], [ -68.053689189100126, -16.53836187756669 ], [ -68.053689206724272, -16.538358262081395 ], [ -68.053681710123257, -16.53835822808195 ], [ -68.053681727747531, -16.538354612596663 ], [ -68.053677979447102, -16.538354595596843 ], [ -68.053674266395504, -16.538347347626402 ], [ -68.053670518095217, -16.538347330626458 ], [ -68.053670606217537, -16.538329253200061 ], [ -68.053666857917605, -16.538329236200067 ], [ -68.053666963664654, -16.538307543288383 ], [ -68.053663215365148, -16.538307526288342 ], [ -68.05366333873701, -16.538282217891332 ], [ -68.053659590438002, -16.538282200891253 ], [ -68.053659696185534, -16.538260507979505 ], [ -68.053655947886952, -16.538260490979386 ], [ -68.053656071259383, -16.538235182582323 ], [ -68.05366356785558, -16.538235216582443 ], [ -68.053663585480052, -16.538231601097131 ], [ -68.053682326970275, -16.538231686096232 ] ] ] } },
{ "type": "Feature", "properties": { "id": 3, "mean_prob": 0.657, "area_m2": 24.0 }, "geometry": { "type": "Polygon", "coordinates": [ [ [ -68.053998730012665, -16.538685066521282 ], [ -68.05399871239392, -16.538688682006782 ], [ -68.054021202237351, -16.538688783972123 ], [ -68.054021184619018, -16.538692399457638 ], [ -68.05402868123366, -16.538692433445554 ], [ -68.054028663615469, -16.53869604893109 ], [ -68.054043639227174, -16.53869973239166 ], [ -68.054043586373396, -16.538710578848299 ], [ -68.054039838065691, -16.538710561854629 ], [ -68.054039802829678, -16.538717792825697 ], [ -68.054036054521859, -16.538717775831948 ], [ -68.054036036903767, -16.53872139131748 ], [ -68.054032288595877, -16.538721374323657 ], [ -68.054032341450323, -16.538710527867075 ], [ -68.054028593142647, -16.538710510873198 ], [ -68.054028540287987, -16.538721357329774 ], [ -68.054021043672222, -16.5387213233418 ], [ -68.054021026053846, -16.538724938827311 ], [ -68.054006032822087, -16.538724870850533 ], [ -68.054002249276706, -16.538732084827156 ], [ -68.053987238425464, -16.538735632334472 ], [ -68.053987291282496, -16.538724785878049 ], [ -68.053983542974578, -16.538724768883352 ], [ -68.053983631069869, -16.538706691455964 ], [ -68.053979882762334, -16.538706674461217 ], [ -68.05397991800055, -16.538699443490259 ], [ -68.053983666307971, -16.538699460484995 ], [ -68.053983719165061, -16.538688614028555 ], [ -68.053998730012665, -16.538685066521282 ] ] ] } },
{ "type": "Feature", "properties": { "id": 4, "mean_prob": 0.837, "area_m2": 93.6 }, "geometry": { "type": "Polygon", "coordinates": [ [ [ -68.055958093060767, -16.538900028185409 ], [ -68.055958075478259, -16.538903643672899 ], [ -68.055976817045817, -16.538903728469265 ], [ -68.055976799463679, -16.538907343956758 ], [ -68.056018030913464, -16.53890753050289 ], [ -68.056018013332064, -16.538911145990436 ], [ -68.056036754900674, -16.538911230781459 ], [ -68.056036772481718, -16.538907615293898 ], [ -68.056044269109051, -16.538907649209829 ], [ -68.056044233947247, -16.538914880184965 ], [ -68.056051730574879, -16.538914914100644 ], [ -68.056051712994105, -16.538918529588212 ], [ -68.056047964680218, -16.538918512630406 ], [ -68.056047947099373, -16.538922128117974 ], [ -68.056044198785429, -16.53892211116009 ], [ -68.056044163623582, -16.538929342135212 ], [ -68.056040415309496, -16.538929325177257 ], [ -68.056040362566492, -16.538940171639926 ], [ -68.056044110880791, -16.538940188597888 ], [ -68.056044075718901, -16.538947419572995 ], [ -68.05604032740446, -16.538947402615026 ], [ -68.056040257080355, -16.538961864565209 ], [ -68.056032760450947, -16.538961830649029 ], [ -68.056028976973735, -16.538969044665905 ], [ -68.056006487084773, -16.53896894291529 ], [ -68.056006504666442, -16.538965327427778 ], [ -68.055999008036963, -16.538965293510376 ], [ -68.05599902561876, -16.538961678022872 ], [ -68.055991528989452, -16.538961644105207 ], [ -68.055991546571391, -16.538958028617717 ], [ -68.055961560054826, -16.538957892944403 ], [ -68.055961577637319, -16.538954277456934 ], [ -68.055931591121606, -16.538954141779342 ], [ -68.055931573538558, -16.538957757266779 ], [ -68.055909083651528, -16.538957655505737 ], [ -68.055909101235002, -16.538954040018321 ], [ -68.055901604606163, -16.538954006097441 ], [ -68.055901622189765, -16.538950390610044 ], [ -68.055897873875423, -16.538950373649509 ], [ -68.055897961793747, -16.53893229621249 ], [ -68.055901710107733, -16.538932313173007 ], [ -68.055901762858454, -16.538921466710779 ], [ -68.055898014544667, -16.538921449750269 ], [ -68.055898084879189, -16.538906987800612 ], [ -68.055905599089684, -16.538903406234105 ], [ -68.055905616673144, -16.538899790746676 ], [ -68.055958093060767, -16.538900028185409 ] ] ] } },
{ "type": "Feature", "properties": { "id": 5, "mean_prob": 0.698, "area_m2": 2189.8 }, "geometry": { "type": "Polygon", "coordinates": [ [ [ -68.055020680440549, -16.538964480465538 ], [ -68.055020662840519, -16.538968095952004 ], [ -68.05503565609547, -16.538968163856847 ], [ -68.055035638495724, -16.538971779343342 ], [ -68.055054380064846, -16.538971864222898 ], [ -68.055054362465441, -16.538975479709407 ], [ -68.055061859093271, -16.53897551366077 ], [ -68.055061876692534, -16.538971898174253 ], [ -68.055069373320237, -16.538971932125335 ], [ -68.055069355721102, -16.538975547611855 ], [ -68.055080600662905, -16.538975598537988 ], [ -68.055080583063983, -16.538979214024526 ], [ -68.055084331377984, -16.538979230999772 ], [ -68.055084296180269, -16.538986461972847 ], [ -68.055088044494426, -16.538986478948036 ], [ -68.055088026895632, -16.53899009443457 ], [ -68.055084278581404, -16.538990077459385 ], [ -68.055084243383661, -16.538997308432446 ], [ -68.055087991698016, -16.538997325407646 ], [ -68.055087974099209, -16.539000940894191 ], [ -68.055117960614837, -16.539001076693392 ], [ -68.055117943016583, -16.539004692179947 ], [ -68.055121691331124, -16.539004709154543 ], [ -68.055121638536534, -16.539015555614249 ], [ -68.055125386851287, -16.539015572588795 ], [ -68.055129099969918, -16.539022820536413 ], [ -68.055144093229558, -16.539022888433685 ], [ -68.05514405803396, -16.539030119406849 ], [ -68.055147806349026, -16.539030136381012 ], [ -68.055147700762561, -16.539051829300508 ], [ -68.055151449078053, -16.539051846274624 ], [ -68.055151431480354, -16.539055461761208 ], [ -68.055158928111481, -16.539055495709242 ], [ -68.055158910513939, -16.539059111195829 ], [ -68.055166407145208, -16.539059145143593 ], [ -68.055166389547779, -16.539062760630205 ], [ -68.055173868581946, -16.539066410064308 ], [ -68.055173833387357, -16.539073641037515 ], [ -68.055181330019238, -16.539073674984778 ], [ -68.055181277227746, -16.53908452144459 ], [ -68.055203749527976, -16.539088238771463 ], [ -68.055203714334453, -16.539095469744709 ], [ -68.05521119337061, -16.539099119177578 ], [ -68.055211158177357, -16.539106350150835 ], [ -68.055203661544141, -16.539106316204581 ], [ -68.0552036087538, -16.539117162664432 ], [ -68.055211087790767, -16.53912081209733 ], [ -68.055211070194105, -16.539124427583953 ], [ -68.055218566828017, -16.53912446152998 ], [ -68.055218531634964, -16.539131692503236 ], [ -68.055241021537668, -16.539131794339749 ], [ -68.055244805046868, -16.539124580338949 ], [ -68.055248553363867, -16.5391245973114 ], [ -68.055248535767902, -16.539128212798055 ], [ -68.055256032402042, -16.539128246742742 ], [ -68.055256049997865, -16.539124631256076 ], [ -68.055259798314864, -16.539124648228309 ], [ -68.055263476249124, -16.53913912714717 ], [ -68.055278469518342, -16.539139195035258 ], [ -68.055282182644945, -16.539146442980485 ], [ -68.055289679279852, -16.539146476924007 ], [ -68.055289591303705, -16.539164554357463 ], [ -68.055285842985896, -16.539164537385723 ], [ -68.055285807795258, -16.53917176835909 ], [ -68.055289556113209, -16.53917178533084 ], [ -68.055289520922699, -16.53917901630421 ], [ -68.055293269240792, -16.5391790332759 ], [ -68.055296736036411, -16.539236898034446 ], [ -68.055300484355627, -16.539236915006061 ], [ -68.055300396379963, -16.539254992439425 ], [ -68.055304144699548, -16.539255009410994 ], [ -68.055304091914309, -16.539265855871001 ], [ -68.055307840234093, -16.53926587284252 ], [ -68.055307734663913, -16.539287565762539 ], [ -68.055303986343716, -16.539287548790995 ], [ -68.055303757606879, -16.539334550117498 ], [ -68.055307505927999, -16.539334567089089 ], [ -68.0553074883329, -16.53933818257573 ], [ -68.055303740011709, -16.539338165604132 ], [ -68.055303634440591, -16.53935985852398 ], [ -68.055299886118988, -16.539359841552294 ], [ -68.055299850928435, -16.539367072525554 ], [ -68.055296102606704, -16.539367055553789 ], [ -68.055296085011364, -16.539370671040427 ], [ -68.055288588367773, -16.539370637096688 ], [ -68.055288570772262, -16.539374252583304 ], [ -68.055202359370625, -16.539373862210937 ], [ -68.055202341773509, -16.539377477697471 ], [ -68.055176103520822, -16.539377358881389 ], [ -68.055176121118407, -16.539373743394886 ], [ -68.055161127831539, -16.539373675498521 ], [ -68.05515741470569, -16.539366427551304 ], [ -68.055153666384129, -16.539366410576985 ], [ -68.055153736776091, -16.539351948631076 ], [ -68.055149988454815, -16.539351931656704 ], [ -68.05515002365091, -16.539344700683738 ], [ -68.055146275329761, -16.539344683709309 ], [ -68.055142597401343, -16.539330204788904 ], [ -68.055135118357953, -16.53932655535327 ], [ -68.055135153554531, -16.539319324380315 ], [ -68.055127674511709, -16.539315674944447 ], [ -68.055127709708543, -16.539308443971507 ], [ -68.055120213067738, -16.539308410021857 ], [ -68.055116499944575, -16.539301162074 ], [ -68.055101524262454, -16.5392974786872 ], [ -68.055101541861333, -16.539293863200747 ], [ -68.055037820420168, -16.53929357461233 ], [ -68.055037802820095, -16.539297190098715 ], [ -68.055030306179901, -16.539297156145853 ], [ -68.055030288579673, -16.539300771632217 ], [ -68.055026540259519, -16.539300754655677 ], [ -68.055026417057348, -16.539326063060216 ], [ -68.055033913698651, -16.539326097013284 ], [ -68.055033896098465, -16.539329712499647 ], [ -68.055037644419187, -16.539329729476076 ], [ -68.055037609218942, -16.539336960448807 ], [ -68.055048854181578, -16.539337011377732 ], [ -68.05504867818216, -16.539373166241447 ], [ -68.055044929860586, -16.539373149265163 ], [ -68.055044912260541, -16.539376764751534 ], [ -68.055029918973986, -16.539376696845725 ], [ -68.055029936574314, -16.539373081359379 ], [ -68.055022457531649, -16.539369431919745 ], [ -68.055022510332975, -16.539358585460722 ], [ -68.055018762011699, -16.539358568483987 ], [ -68.055018797212711, -16.539351337511309 ], [ -68.055011318171097, -16.53934768807131 ], [ -68.05501130057047, -16.539351303557652 ], [ -68.05500755224935, -16.539351286580725 ], [ -68.055007429044295, -16.539376594984994 ], [ -68.055003680722706, -16.539376578007971 ], [ -68.055003663121894, -16.539380193494296 ], [ -68.054988669835268, -16.53938012558551 ], [ -68.054988775441714, -16.539358432667687 ], [ -68.054985027120495, -16.539358415690344 ], [ -68.054985097524991, -16.539343953745121 ], [ -68.054981349204041, -16.539343936767729 ], [ -68.054981366805222, -16.539340321281422 ], [ -68.054977618484358, -16.539340304303966 ], [ -68.054977653686848, -16.539333073331363 ], [ -68.054970174646769, -16.539329423889964 ], [ -68.054973958170038, -16.539322209894941 ], [ -68.054962713208496, -16.539322158962023 ], [ -68.054959035294274, -16.539307680039087 ], [ -68.05493656297503, -16.539303962684858 ], [ -68.054932849858986, -16.5392967147341 ], [ -68.05491785657911, -16.53929664682056 ], [ -68.054917874181413, -16.539293031334303 ], [ -68.054902880901892, -16.539292963419701 ], [ -68.054902863299304, -16.53929657890594 ], [ -68.054887887622428, -16.539292895504023 ], [ -68.05488787001957, -16.539296510990251 ], [ -68.054876625059805, -16.539296460052771 ], [ -68.05487284153358, -16.539303674045893 ], [ -68.054857848253434, -16.539303606128012 ], [ -68.05485786585686, -16.539299990641815 ], [ -68.054842854973344, -16.539303538209055 ], [ -68.05484280216217, -16.53931438466757 ], [ -68.054835287917868, -16.539317966193824 ], [ -68.054835270313987, -16.539321581679989 ], [ -68.05483901863434, -16.539321598659981 ], [ -68.054838965822896, -16.539332445118461 ], [ -68.054842714143462, -16.5393324620984 ], [ -68.054842696539708, -16.539336077584558 ], [ -68.054868934784295, -16.539336196442274 ], [ -68.054872647898563, -16.539343444394067 ], [ -68.054868899577741, -16.539343427414657 ], [ -68.054868881974471, -16.53934704290084 ], [ -68.054861385332714, -16.539347008941807 ], [ -68.054861367729302, -16.539350624427989 ], [ -68.054872612692137, -16.53935067536645 ], [ -68.054872577485682, -16.539357906338822 ], [ -68.054887570770106, -16.539357974255864 ], [ -68.054887588373049, -16.53935435876965 ], [ -68.054902564054586, -16.539358042171816 ], [ -68.054902599259904, -16.53935081119938 ], [ -68.054913844222895, -16.53935086213562 ], [ -68.054913826620449, -16.539354477621838 ], [ -68.054921323262604, -16.539354511579006 ], [ -68.054921217648641, -16.539376204496417 ], [ -68.054917469327151, -16.539376187517853 ], [ -68.05491745172472, -16.539379803004074 ], [ -68.054894961795412, -16.539379701131207 ], [ -68.054894979398242, -16.539376085645003 ], [ -68.05486874114807, -16.539375966790285 ], [ -68.054868758751383, -16.539372351304106 ], [ -68.054857513787297, -16.539372300365372 ], [ -68.054857496183772, -16.539375915851544 ], [ -68.054831257933898, -16.539375796992118 ], [ -68.054831275537907, -16.539372181505971 ], [ -68.054823778895269, -16.539372147545535 ], [ -68.054823849311845, -16.539357685601015 ], [ -68.054827597632865, -16.539357702581249 ], [ -68.054827632840983, -16.539350471608969 ], [ -68.05483138116189, -16.539350488589129 ], [ -68.054831416369851, -16.539343257616839 ], [ -68.0548276680491, -16.539343240636686 ], [ -68.054827703257175, -16.539336009664385 ], [ -68.054831451577797, -16.539336026644527 ], [ -68.054831504389682, -16.539325180186083 ], [ -68.054827756069258, -16.539325163205948 ], [ -68.054827808881313, -16.53931431674749 ], [ -68.054820329845057, -16.539310667300896 ], [ -68.054820382657482, -16.539299820842444 ], [ -68.05481663433757, -16.539299803862139 ], [ -68.054816669545971, -16.539292572889842 ], [ -68.054812921226201, -16.539292555909476 ], [ -68.054812938830452, -16.53928894042334 ], [ -68.054797945551712, -16.539288872501213 ], [ -68.054797927947163, -16.539292487987339 ], [ -68.054771689709028, -16.539292369121 ], [ -68.054767906179094, -16.539299583112022 ], [ -68.054756661219557, -16.539299532168069 ], [ -68.054756678824859, -16.539295916681986 ], [ -68.054749182185333, -16.539295882719024 ], [ -68.054749199790777, -16.539292267232948 ], [ -68.054734206512052, -16.539292199306228 ], [ -68.05473422411778, -16.53928858382017 ], [ -68.054722979158967, -16.539288532874437 ], [ -68.054722996764909, -16.539284917388372 ], [ -68.054681765250422, -16.539284730582214 ], [ -68.054681747643727, -16.539288346068229 ], [ -68.054666736758605, -16.539291893622671 ], [ -68.054666719151612, -16.539295509108669 ], [ -68.054662970831956, -16.539295492125603 ], [ -68.054662935617827, -16.539302723097578 ], [ -68.05465543897823, -16.53930268913123 ], [ -68.054655421371024, -16.539306304617206 ], [ -68.054666666330633, -16.539306355566644 ], [ -68.054666648723625, -16.539309971052621 ], [ -68.054662900403684, -16.539309954069537 ], [ -68.054662847582435, -16.539320800527488 ], [ -68.054666595902589, -16.539320817510582 ], [ -68.054666578295553, -16.539324432996562 ], [ -68.054674092542911, -16.539320851476557 ], [ -68.054674057329123, -16.539328082448534 ], [ -68.054670309008841, -16.539328065465572 ], [ -68.054670291401862, -16.539331680951555 ], [ -68.054677770435788, -16.539335330403411 ], [ -68.054677717615277, -16.539346176861372 ], [ -68.054673969294626, -16.539346159878463 ], [ -68.054677682401589, -16.539353407833342 ], [ -68.054673934080796, -16.539353390850419 ], [ -68.054673916473874, -16.539357006336402 ], [ -68.054677664794738, -16.539357023319333 ], [ -68.054677647187873, -16.539360638805309 ], [ -68.054685161436481, -16.539357057284988 ], [ -68.054685143829758, -16.539360672770975 ], [ -68.054692622865076, -16.539364322222362 ], [ -68.054692605258495, -16.539367937708363 ], [ -68.054685108616312, -16.539367903742949 ], [ -68.054685091009574, -16.539371519228933 ], [ -68.054677611974157, -16.539367869777273 ], [ -68.054673828439206, -16.539375083766281 ], [ -68.054666331796781, -16.539375049800181 ], [ -68.054666314189703, -16.539378665286147 ], [ -68.054643824262143, -16.539378563386215 ], [ -68.054643841869662, -16.539374947900274 ], [ -68.054640093548485, -16.539374930916718 ], [ -68.054640146371199, -16.539364084458903 ], [ -68.054632667336975, -16.53936043500569 ], [ -68.054632720160043, -16.539349588547882 ], [ -68.054628971839364, -16.539349571564152 ], [ -68.054628989447124, -16.539345956078211 ], [ -68.054617744485356, -16.539345905126634 ], [ -68.054617938172626, -16.539306134781413 ], [ -68.054625452420026, -16.539302553263159 ], [ -68.054625487635548, -16.539295322291263 ], [ -68.054629235955176, -16.539295339275007 ], [ -68.054629376816536, -16.539266415387342 ], [ -68.054633125135609, -16.539266432370976 ], [ -68.054629482462374, -16.53924472247154 ], [ -68.054625734143727, -16.53924470548786 ], [ -68.05462576935912, -16.539237474515922 ], [ -68.054618290329941, -16.539233825062421 ], [ -68.054614577227298, -16.539226577106618 ], [ -68.054607080590742, -16.539226543138689 ], [ -68.054607115806789, -16.539219312166779 ], [ -68.05459963677869, -16.53921566271265 ], [ -68.054599689603123, -16.539204816254799 ], [ -68.054595941285271, -16.539204799270621 ], [ -68.054595976501673, -16.539197568298722 ], [ -68.054599724819369, -16.539197585282892 ], [ -68.05459977764373, -16.539186738825016 ], [ -68.054592281008752, -16.539186704856633 ], [ -68.054588603124529, -16.539172225928535 ], [ -68.054573609855751, -16.539172157990759 ], [ -68.054573645072921, -16.539164927018888 ], [ -68.05456616604755, -16.539161277563679 ], [ -68.054566183656263, -16.539157662077745 ], [ -68.054558687022478, -16.539157628108214 ], [ -68.054558704631333, -16.539154012622276 ], [ -68.054562452948147, -16.539154029607072 ], [ -68.054562505774442, -16.539143183149285 ], [ -68.054555026750137, -16.539139533693714 ], [ -68.05455509718567, -16.539125071749996 ], [ -68.054547600553164, -16.539125037780131 ], [ -68.054547618162175, -16.539121422294201 ], [ -68.054543869846015, -16.539121405309171 ], [ -68.054543922673233, -16.539110558851391 ], [ -68.054577657517072, -16.539110711714123 ], [ -68.0545776751255, -16.539107096228172 ], [ -68.054581423441448, -16.539107113212577 ], [ -68.054581405833062, -16.539110728698532 ], [ -68.054615140677299, -16.53911088155521 ], [ -68.054615158285046, -16.539107266069216 ], [ -68.054656389761035, -16.539107452886594 ], [ -68.054656372154056, -16.53911106837263 ], [ -68.05466012047016, -16.539111085355632 ], [ -68.054660138077054, -16.539107469869588 ], [ -68.054708866185791, -16.539107690642386 ], [ -68.05470888379179, -16.539104075156285 ], [ -68.054750115268234, -16.539104261955103 ], [ -68.054750132873437, -16.539100646468953 ], [ -68.054798860981748, -16.53910086722065 ], [ -68.054798896190363, -16.539093636248246 ], [ -68.054806410426352, -16.539090054722823 ], [ -68.054806428030503, -16.539086439236605 ], [ -68.054817672977862, -16.539086490177244 ], [ -68.0548176905818, -16.539082874691015 ], [ -68.054828935528988, -16.539082925631028 ], [ -68.054828917925263, -16.539086541117268 ], [ -68.054832666241069, -16.539086558097143 ], [ -68.054832631033747, -16.539093789069607 ], [ -68.05483637934968, -16.539093806049422 ], [ -68.054836326538862, -16.53910465250814 ], [ -68.054840074855022, -16.539104669487898 ], [ -68.054840057251482, -16.539108284974141 ], [ -68.05484755388396, -16.539108318933465 ], [ -68.054851337406888, -16.539101104940521 ], [ -68.054877575619784, -16.539101223795502 ], [ -68.054877593222628, -16.53909760830923 ], [ -68.054881341538703, -16.539097625288242 ], [ -68.054885125060181, -16.539090411294609 ], [ -68.054892604089517, -16.539094060738563 ], [ -68.054892621692076, -16.539090445252278 ], [ -68.054900118323985, -16.539090479209673 ], [ -68.054900135926403, -16.539086863723362 ], [ -68.054911380874088, -16.539086914658945 ], [ -68.054915164394245, -16.53907970066469 ], [ -68.054926409341562, -16.539079751599445 ], [ -68.054926426943481, -16.539076136113099 ], [ -68.054933941176685, -16.539072554582908 ], [ -68.054934011583697, -16.5390580926375 ], [ -68.054930263268318, -16.539058075659476 ], [ -68.05493029847193, -16.539050844686773 ], [ -68.054926550156722, -16.539050827708692 ], [ -68.054926567758585, -16.539047212222339 ], [ -68.054922819443419, -16.539047195244194 ], [ -68.054922925054996, -16.539025502326094 ], [ -68.054926673369721, -16.539025519304214 ], [ -68.05492669097157, -16.539021903817858 ], [ -68.054934205202613, -16.539018322287536 ], [ -68.054934293211033, -16.539000244855682 ], [ -68.054941807441097, -16.538996663325012 ], [ -68.054941895448678, -16.538978585893084 ], [ -68.054945643762522, -16.538978602870824 ], [ -68.054945661363973, -16.538974987384425 ], [ -68.054953157991548, -16.538975021339695 ], [ -68.054953175592829, -16.538971405853296 ], [ -68.054979413788971, -16.538971524694567 ], [ -68.054979431389768, -16.538967909208132 ], [ -68.055009417899356, -16.538968045022667 ], [ -68.055009435499585, -16.538964429536207 ], [ -68.055020680440549, -16.538964480465538 ] ], [ [ -68.05510291456136, -16.539011855253964 ], [ -68.055099166246706, -16.539011838279016 ], [ -68.05509913104946, -16.53901906925211 ], [ -68.055102879364256, -16.539019086227061 ], [ -68.05510291456136, -16.539011855253964 ] ] ] } },
{ "type": "Feature", "properties": { "id": 6, "mean_prob": 0.841, "area_m2": 85.1 }, "geometry": { "type": "Polygon", "coordinates": [ [ [ -68.055209257714893, -16.539496822699178 ], [ -68.055209240117776, -16.539500438185662 ], [ -68.055224233414648, -16.539500506079076 ], [ -68.05522794654533, -16.539507754025284 ], [ -68.055235425597459, -16.539511403457972 ], [ -68.055235267227516, -16.539543942836541 ], [ -68.055239015552587, -16.539543959809571 ], [ -68.05523894516611, -16.539558421755579 ], [ -68.055235196840755, -16.539558404782536 ], [ -68.055235144050627, -16.539569251242021 ], [ -68.055231395725073, -16.539569234268892 ], [ -68.055231360531494, -16.539576465241861 ], [ -68.055212618903042, -16.539576380375191 ], [ -68.055212636500173, -16.539572764888721 ], [ -68.055201391523369, -16.539572713967917 ], [ -68.055201409120698, -16.539569098481469 ], [ -68.055182667493114, -16.539569013612144 ], [ -68.055182685090799, -16.539565398125699 ], [ -68.055175188439932, -16.539565364177509 ], [ -68.055175206037759, -16.539561748691082 ], [ -68.055156464411013, -16.539561663819434 ], [ -68.055156482009195, -16.539558048333017 ], [ -68.055141506306597, -16.539554364948103 ], [ -68.055141541503474, -16.539547133975308 ], [ -68.055134062451955, -16.539543484539283 ], [ -68.055134080050522, -16.539539869052877 ], [ -68.055126583400749, -16.539539835102989 ], [ -68.05512290547091, -16.539525356182402 ], [ -68.055119157146308, -16.539525339207305 ], [ -68.05511920994276, -16.53951449274814 ], [ -68.055115461618385, -16.539514475772979 ], [ -68.055115496816128, -16.539507244800209 ], [ -68.055119245140361, -16.539507261775352 ], [ -68.055119262739169, -16.53950364628896 ], [ -68.05512675938752, -16.53950368023904 ], [ -68.055126776986185, -16.539500064752637 ], [ -68.055138021958555, -16.539500115677239 ], [ -68.055138039556994, -16.539496500190825 ], [ -68.055160529501421, -16.539496602038195 ], [ -68.055160511903395, -16.539500217524626 ], [ -68.055197995145164, -16.539500387264898 ], [ -68.05519801274248, -16.539496771778424 ], [ -68.055209257714893, -16.539496822699178 ] ] ] } }
]
}
