{
"type": "FeatureCollection",
"name": "buildings",
"crs": { "type": "name", "properties": { "name": "urn:ogc:def:crs:EPSG::32610" } },
"features": [
{ "type": "Feature", "properties": { "id": 1, "mean_prob": 0.794, "area_m2": 19.0 }, "geometry": { "type": "Polygon", "coordinates": [ [ [ 550591.101716, 4179795.196294079069048 ], [ 550591.101716, 4179794.796309352852404 ], [ 550591.501716000027955, 4179794.796309352852404 ], [ 550591.901716000051238, 4179793.996339900884777 ], [ 550592.301716000074521, 4179793.996339900884777 ], [ 550592.301716000074521, 4179793.19637044891715 ], [ 550592.701716000097804, 4179793.19637044891715 ], [ 550593.101716, 4179792.396400996949524 ], [ 550593.501716000027955, 4179792.396400996949524 ], [ 550593.501716000027955, 4179791.99641627073288 ], [ 550591.901716000051238, 4179791.596431544981897 ], [ 550591.901716000051238, 4179791.196446818765253 ], [ 550591.101716, 4179790.79646209301427 ], [ 550591.101716, 4179789.996492641046643 ], [ 550591.501716000027955, 4179789.996492641046643 ], [ 550591.501716000027955, 4179789.596507914829999 ], [ 550592.301716000074521, 4179789.596507914829999 ], [ 550592.301716000074521, 4179789.196523188613355 ], [ 550593.901716000051238, 4179789.196523188613355 ], [ 550593.901716000051238, 4179789.596507914829999 ], [ 550594.701716000097804, 4179789.996492641046643 ], [ 550594.701716000097804, 4179790.79646209301427 ], [ 550595.501716000027955, 4179790.79646209301427 ], [ 550595.501716000027955, 4179795.196294079069048 ], [ 550591.101716, 4179795.196294079069048 ] ] ] } },
{ "type": "Feature", "properties": { "id": 2, "mean_prob": 0.699, "area_m2": 12.3 }, "geometry": { "type": "Polygon", "coordinates": [ [ [ 550535.501716000027955, 4179791.99641627073288 ], [ 550535.501716000027955, 4179786.396630106493831 ], [ 550536.301716000074521, 4179786.396630106493831 ], [ 550536.301716000074521, 4179785.996645380742848 ], [ 550536.701715999981388, 4179785.996645380742848 ], [ 550536.701715999981388, 4179787.996569010894746 ], [ 550537.101716, 4179787.996569010894746 ], [ 550537.101716, 4179788.796538462862372 ], [ 550537.901716000051238, 4179788.796538462862372 ], [ 550538.301716000074521, 4179789.596507914829999 ], [ 550538.701715999981388, 4179789.596507914829999 ], [ 550538.701715999981388, 4179791.196446818765253 ], [ 550538.301716000074521, 4179791.196446818765253 ], [ 550538.301716000074521, 4179791.596431544981897 ], [ 550537.101716, 4179791.596431544981897 ], [ 550537.101716, 4179791.99641627073288 ], [ 550535.501716000027955, 4179791.99641627073288 ] ] ] } },
{ "type": "Feature", "properties": { "id": 3, "mean_prob": 0.907, "area_m2": 1448.1 }, "geometry": { "type": "Polygon", "coordinates": [ [ [ 550558.301716000074521, 4179795.196294079069048 ], [ 550558.301716000074521, 4179790.396477366797626 ], [ 550558.701715999981388, 4179790.396477366797626 ], [ 550558.701715999981388, 4179787.196599558927119 ], [ 550559.101716, 4179787.196599558927119 ], [ 550559.101716, 4179786.396630106493831 ], [ 550559.501716000027955, 4179786.396630106493831 ], [ 550559.501716000027955, 4179783.99672175059095 ], [ 550558.701715999981388, 4179783.596737024374306 ], [ 550558.701715999981388, 4179781.59681339468807 ], [ 550559.101716, 4179781.59681339468807 ], [ 550559.101716, 4179780.796843942254782 ], [ 550559.501716000027955, 4179780.796843942254782 ], [ 550559.501716000027955, 4179779.996874490287155 ], [ 550559.901716000051238, 4179779.996874490287155 ], [ 550559.901716000051238, 4179776.796996682416648 ], [ 550560.301716000074521, 4179776.796996682416648 ], [ 550560.301716000074521, 4179775.997027230449021 ], [ 550560.701715999981388, 4179775.997027230449021 ], [ 550560.701715999981388, 4179775.197057778015733 ], [ 550561.101716, 4179775.197057778015733 ], [ 550561.101716, 4179774.79707305226475 ], [ 550561.901716000051238, 4179774.79707305226475 ], [ 550561.901716000051238, 4179774.397088326048106 ], [ 550562.301716000074521, 4179774.397088326048106 ], [ 550562.701715999981388, 4179773.597118874080479 ], [ 550563.101716, 4179773.597118874080479 ], [ 550563.101716, 4179772.797149422112852 ], [ 550563.501716000027955, 4179772.797149422112852 ], [ 550563.501716000027955, 4179771.597195243928581 ], [ 550564.301716000074521, 4179771.197210518177599 ], [ 550564.301716000074521, 4179770.397241066209972 ], [ 550565.501716000027955, 4179770.397241066209972 ], [ 550565.901716000051238, 4179769.597271613776684 ], [ 550566.701715999981388, 4179769.197286888025701 ], [ 550566.701715999981388, 4179767.99733270984143 ], [ 550567.101716, 4179767.99733270984143 ], [ 550567.101716, 4179767.197363257873803 ], [ 550567.501716000027955, 4179767.197363257873803 ], [ 550567.501716000027955, 4179765.997409079689533 ], [ 550567.101716, 4179765.997409079689533 ], [ 550567.101716, 4179763.197515997570008 ], [ 550567.501716000027955, 4179763.197515997570008 ], [ 550567.501716000027955, 4179762.397546545602381 ], [ 550567.901716000051238, 4179762.397546545602381 ], [ 550567.901716000051238, 4179761.597577093634754 ], [ 550568.301716000074521, 4179761.597577093634754 ], [ 550568.701715999981388, 4179759.997638189699501 ], [ 550569.101716, 4179759.997638189699501 ], [ 550569.101716, 4179758.79768401151523 ], [ 550569.501716000027955, 4179758.79768401151523 ], [ 550569.901716000051238, 4179757.197745107579976 ], [ 550570.701715999981388, 4179756.797760381363332 ], [ 550570.701715999981388, 4179755.997790929395705 ], [ 550571.901716000051238, 4179755.997790929395705 ], [ 550571.901716000051238, 4179755.597806203644723 ], [ 550572.301716000074521, 4179755.597806203644723 ], [ 550572.301716000074521, 4179754.397852025460452 ], [ 550572.701715999981388, 4179754.397852025460452 ], [ 550572.701715999981388, 4179753.597882573492825 ], [ 550572.301716000074521, 4179753.597882573492825 ], [ 550572.301716000074521, 4179753.197897847276181 ], [ 550572.701715999981388, 4179753.197897847276181 ], [ 550572.701715999981388, 4179752.797913121525198 ], [ 550572.301716000074521, 4179752.797913121525198 ], [ 550572.301716000074521, 4179749.998020039405674 ], [ 550572.701715999981388, 4179749.998020039405674 ], [ 550572.701715999981388, 4179749.198050586972386 ], [ 550573.101716, 4179749.198050586972386 ], [ 550573.101716, 4179748.798065861221403 ], [ 550572.701715999981388, 4179748.798065861221403 ], [ 550572.701715999981388, 4179747.598111683037132 ], [ 550573.101716, 4179747.598111683037132 ], [ 550573.101716, 4179747.198126957286149 ], [ 550573.901716000051238, 4179747.198126957286149 ], [ 550573.901716000051238, 4179746.798142231069505 ], [ 550574.701715999981388, 4179746.398157504852861 ], [ 550574.701715999981388, 4179745.598188052885234 ], [ 550575.501716000027955, 4179745.598188052885234 ], [ 550575.901716000051238, 4179744.798218600917608 ], [ 550576.301716000074521, 4179744.798218600917608 ], [ 550576.301716000074521, 4179743.998249148949981 ], [ 550577.101716, 4179743.998249148949981 ], [ 550577.101716, 4179743.198279696982354 ], [ 550577.501716000027955, 4179743.198279696982354 ], [ 550577.101716, 4179742.398310245014727 ], [ 550578.701715999981388, 4179742.398310245014727 ], [ 550578.701715999981388, 4179741.998325518798083 ], [ 550579.101716, 4179741.998325518798083 ], [ 550579.101716, 4179741.5983407930471 ], [ 550579.901716000051238, 4179741.5983407930471 ], [ 550579.901716000051238, 4179741.198356066830456 ], [ 550581.501716000027955, 4179741.198356066830456 ], [ 550581.501716000027955, 4179741.5983407930471 ], [ 550582.301716000074521, 4179741.998325518798083 ], [ 550582.301716000074521, 4179742.79829497076571 ], [ 550582.701715999981388, 4179742.79829497076571 ], [ 550582.701715999981388, 4179743.998249148949981 ], [ 550584.301716000074521, 4179744.798218600917608 ], [ 550584.301716000074521, 4179745.598188052885234 ], [ 550585.901716000051238, 4179745.598188052885234 ], [ 550585.901716000051238, 4179745.198203327134252 ], [ 550586.701715999981388, 4179745.198203327134252 ], [ 550586.701715999981388, 4179744.798218600917608 ], [ 550589.501716000027955, 4179744.798218600917608 ], [ 550589.501716000027955, 4179745.198203327134252 ], [ 550589.901716000051238, 4179745.198203327134252 ], [ 550589.901716000051238, 4179744.798218600917608 ], [ 550592.301716000074521, 4179744.398233875166625 ], [ 550592.301716000074521, 4179743.998249148949981 ], [ 550593.101716, 4179743.998249148949981 ], [ 550593.101716, 4179743.598264422733337 ], [ 550595.501716000027955, 4179743.598264422733337 ], [ 550595.501716000027955, 4179787.596584284678102 ], [ 550594.701716000097804, 4179787.596584284678102 ], [ 550594.701716000097804, 4179787.996569010894746 ], [ 550592.301716000074521, 4179787.996569010894746 ], [ 550592.301716000074521, 4179787.596584284678102 ], [ 550591.101716, 4179787.596584284678102 ], [ 550591.101716, 4179787.196599558927119 ], [ 550589.101716, 4179787.196599558927119 ], [ 550588.701716000097804, 4179787.996569010894746 ], [ 550588.301716000074521, 4179787.996569010894746 ], [ 550588.301716000074521, 4179788.796538462862372 ], [ 550587.501716000027955, 4179789.196523188613355 ], [ 550587.101716, 4179789.996492641046643 ], [ 550586.701715999981388, 4179789.996492641046643 ], [ 550586.701715999981388, 4179790.396477366797626 ], [ 550585.901716000051238, 4179790.396477366797626 ], [ 550585.901716000051238, 4179791.196446818765253 ], [ 550586.301716000074521, 4179791.196446818765253 ], [ 550586.301716000074521, 4179791.596431544981897 ], [ 550585.501716000027955, 4179791.99641627073288 ], [ 550585.501716000027955, 4179792.396400996949524 ], [ 550584.701715999981388, 4179792.396400996949524 ], [ 550584.701715999981388, 4179792.796385723166168 ], [ 550584.301716000074521, 4179792.796385723166168 ], [ 550584.301716000074521, 4179792.396400996949524 ], [ 550583.501716000027955, 4179792.396400996949524 ], [ 550583.501716000027955, 4179792.796385723166168 ], [ 550582.301716000074521, 4179792.796385723166168 ], [ 550582.301716000074521, 4179793.19637044891715 ], [ 550581.501716000027955, 4179793.19637044891715 ], [ 550581.501716000027955, 4179793.596355175133795 ], [ 550580.701715999981388, 4179793.596355175133795 ], [ 550580.701715999981388, 4179793.996339900884777 ], [ 550580.301716000074521, 4179793.996339900884777 ], [ 550580.301716000074521, 4179795.196294079069048 ], [ 550558.301716000074521, 4179795.196294079069048 ] ], [ [ 550586.301716000074521, 4179785.596660654526204 ], [ 550587.101716, 4179785.596660654526204 ], [ 550587.101716, 4179783.196752298623323 ], [ 550586.301716000074521, 4179783.196752298623323 ], [ 550586.301716000074521, 4179783.596737024374306 ], [ 550585.901716000051238, 4179783.596737024374306 ], [ 550585.901716000051238, 4179784.396706476807594 ], [ 550586.301716000074521, 4179784.396706476807594 ], [ 550586.301716000074521, 4179785.596660654526204 ] ], [ [ 550576.701715999981388, 4179775.597042504232377 ], [ 550577.101716, 4179775.597042504232377 ], [ 550577.101716, 4179775.197057778015733 ], [ 550576.701715999981388, 4179775.197057778015733 ], [ 550576.701715999981388, 4179775.597042504232377 ] ], [ [ 550576.701715999981388, 4179774.79707305226475 ], [ 550577.101716, 4179774.79707305226475 ], [ 550577.101716, 4179773.997103600297123 ], [ 550576.701715999981388, 4179773.997103600297123 ], [ 550576.701715999981388, 4179774.79707305226475 ] ], [ [ 550577.901716000051238, 4179773.597118874080479 ], [ 550578.301716000074521, 4179773.597118874080479 ], [ 550578.301716000074521, 4179773.197134148329496 ], [ 550579.501716000027955, 4179773.197134148329496 ], [ 550579.501716000027955, 4179772.797149422112852 ], [ 550579.901716000051238, 4179772.797149422112852 ], [ 550580.301716000074521, 4179771.997179970145226 ], [ 550581.101716, 4179771.997179970145226 ], [ 550581.101716, 4179771.597195243928581 ], [ 550581.901716000051238, 4179771.197210518177599 ], [ 550581.901716000051238, 4179769.997256339993328 ], [ 550582.301716000074521, 4179769.997256339993328 ], [ 550582.301716000074521, 4179769.597271613776684 ], [ 550581.501716000027955, 4179769.197286888025701 ], [ 550581.101716, 4179768.397317436058074 ], [ 550580.301716000074521, 4179768.397317436058074 ], [ 550580.301716000074521, 4179767.597347984090447 ], [ 550579.901716000051238, 4179767.597347984090447 ], [ 550579.901716000051238, 4179768.397317436058074 ], [ 550578.701715999981388, 4179768.397317436058074 ], [ 550578.701715999981388, 4179767.99733270984143 ], [ 550577.901716000051238, 4179767.99733270984143 ], [ 550577.901716000051238, 4179768.797302161809057 ], [ 550577.501716000027955, 4179768.797302161809057 ], [ 550577.501716000027955, 4179769.597271613776684 ], [ 550577.101716, 4179769.597271613776684 ], [ 550577.501716000027955, 4179770.397241066209972 ], [ 550577.101716, 4179770.397241066209972 ], [ 550577.101716, 4179771.197210518177599 ], [ 550576.701715999981388, 4179771.197210518177599 ], [ 550576.701715999981388, 4179772.797149422112852 ], [ 550577.101716, 4179772.797149422112852 ], [ 550577.101716, 4179773.197134148329496 ], [ 550577.901716000051238, 4179773.197134148329496 ], [ 550577.901716000051238, 4179773.597118874080479 ] ] ] } }
]
}
