{
"type": "FeatureCollection",
"name": "buildings_wgs84",
"crs": { "type": "name", "properties": { "name": "urn:ogc:def:crs:OGC:1.3:CRS84" } },
"features": [
{ "type": "Feature", "properties": { "id": 1, "mean_prob": 0.794, "area_m2": 19.0 }, "geometry": { "type": "Polygon", "coordinates": [ [ [ -122.425611661699918, 37.764081459712429 ], [ -122.425611689580123, 37.764077854726814 ], [ -122.425607148372038, 37.764077832592669 ], [ -122.425602662925201, 37.764070600487145 ], [ -122.425598121717584, 37.764070578352651 ], [ -122.425598177479245, 37.764063368381436 ], [ -122.425593636272069, 37.764063346246779 ], [ -122.425589150827435, 37.764056114140729 ], [ -122.425584609620671, 37.764056092005724 ], [ -122.425584637502169, 37.764052487020116 ], [ -122.425602830208874, 37.764048970573462 ], [ -122.425602858089462, 37.76404536558784 ], [ -122.425611968381816, 37.764041804870644 ], [ -122.425612024142112, 37.764034594899371 ], [ -122.42560748293667, 37.764034572765254 ], [ -122.425607510817002, 37.764030967779625 ], [ -122.425598428406587, 37.76403092351088 ], [ -122.425598456287375, 37.764027318525244 ], [ -122.425580291467455, 37.764027229985651 ], [ -122.425580263585772, 37.76403083497128 ], [ -122.425571153293276, 37.764034395686032 ], [ -122.425571097529044, 37.764041605657255 ], [ -122.42556201511735, 37.764041561385689 ], [ -122.425561708408807, 37.764081216227147 ], [ -122.425611661699918, 37.764081459712429 ] ] ] } },
{ "type": "Feature", "properties": { "id": 2, "mean_prob": 0.699, "area_m2": 12.3 }, "geometry": { "type": "Polygon", "coordinates": [ [ [ -122.426243112499577, 37.764055694768864 ], [ -122.426243502392452, 37.764005224964365 ], [ -122.426234419984141, 37.764005180744654 ], [ -122.426234447834048, 37.764001575758613 ], [ -122.426229906630113, 37.764001553648505 ], [ -122.426229767379496, 37.76401957857869 ], [ -122.426225226174481, 37.764019556468391 ], [ -122.426225170473771, 37.764026766440452 ], [ -122.426216088062858, 37.764026722219313 ], [ -122.426211491155343, 37.764033910080514 ], [ -122.426206949949474, 37.764033887969504 ], [ -122.426206838544388, 37.764048307913519 ], [ -122.426211379751152, 37.764048330024544 ], [ -122.426211351900079, 37.764051935010549 ], [ -122.426224975521052, 37.764052001342577 ], [ -122.426224947670661, 37.76405560632859 ], [ -122.426243112499577, 37.764055694768864 ] ] ] } },
{ "type": "Feature", "properties": { "id": 3, "mean_prob": 0.907, "area_m2": 1448.1 }, "geometry": { "type": "Polygon", "coordinates": [ [ [ -122.425984040798156, 37.764083274117411 ], [ -122.425984375143329, 37.764040014287168 ], [ -122.425979833937262, 37.764039992167397 ], [ -122.425980056835414, 37.764011152280425 ], [ -122.425975515631123, 37.764011130160497 ], [ -122.425975571356048, 37.764003920188735 ], [ -122.425971030152184, 37.764003898068644 ], [ -122.425971197328167, 37.76398226815332 ], [ -122.425980307595466, 37.763978707407389 ], [ -122.425980446906408, 37.763960682477858 ], [ -122.425975905705187, 37.763960660357988 ], [ -122.425975961429984, 37.763953450386147 ], [ -122.425971420229203, 37.763953428266099 ], [ -122.425971475954427, 37.763946218294272 ], [ -122.425966934754101, 37.763946196174047 ], [ -122.425967157656501, 37.763917356286676 ], [ -122.425962616457937, 37.763917334166308 ], [ -122.425962672183928, 37.763910124194453 ], [ -122.425958130985819, 37.763910102073908 ], [ -122.425958186712236, 37.763902892102038 ], [ -122.425953645514554, 37.763902869981322 ], [ -122.425953673377975, 37.763899264995402 ], [ -122.425944590983093, 37.763899220753459 ], [ -122.42594461884697, 37.763895615767517 ], [ -122.425940077649756, 37.763895593646296 ], [ -122.425935592181119, 37.763888361553043 ], [ -122.425931050984346, 37.763888339431468 ], [ -122.425931106713364, 37.763881129459612 ], [ -122.425926565517045, 37.763881107337866 ], [ -122.425926649111176, 37.763870292380076 ], [ -122.425917594585016, 37.763866643150152 ], [ -122.42591765031527, 37.76385943317829 ], [ -122.42590402673035, 37.763859366811005 ], [ -122.425899541267398, 37.763852134716373 ], [ -122.425890486744805, 37.763848485484388 ], [ -122.425890570344094, 37.763837670526605 ], [ -122.425886029150462, 37.763837648403317 ], [ -122.425886084883729, 37.763830438431462 ], [ -122.425881543690551, 37.763830416308018 ], [ -122.425881627291076, 37.763819601350207 ], [ -122.425886168483586, 37.763819623473651 ], [ -122.425886363549751, 37.763794388572002 ], [ -122.425881822358789, 37.763794366448579 ], [ -122.425881878092355, 37.763787156476688 ], [ -122.425877336901834, 37.763787134353088 ], [ -122.42587739263584, 37.763779924381168 ], [ -122.42587285144576, 37.763779902257411 ], [ -122.425868421725411, 37.763765460189639 ], [ -122.425863880536227, 37.763765438065548 ], [ -122.425863964139111, 37.763754623107658 ], [ -122.425859422950595, 37.763754600983383 ], [ -122.425854993234282, 37.763740158915084 ], [ -122.425845938727505, 37.763736509679738 ], [ -122.425845994464467, 37.763729299707798 ], [ -122.425832370903592, 37.763729233332427 ], [ -122.425832398772727, 37.763725628346464 ], [ -122.425827857585986, 37.763725606221001 ], [ -122.425827941194015, 37.763714791263105 ], [ -122.425823400007971, 37.763714769137472 ], [ -122.425823455747064, 37.763707559165553 ], [ -122.425827996932682, 37.763707581291172 ], [ -122.425828024802001, 37.763703976305202 ], [ -122.425823483616611, 37.763703954179569 ], [ -122.425823511486129, 37.763700349193599 ], [ -122.425828052671321, 37.763700371319231 ], [ -122.425828247756414, 37.763675136417334 ], [ -122.425823706572757, 37.763675114291729 ], [ -122.425823762311751, 37.763667904319739 ], [ -122.425819221128577, 37.763667882193964 ], [ -122.425819248998266, 37.763664277207987 ], [ -122.425823790181241, 37.763664299333762 ], [ -122.425823873789682, 37.763653484375737 ], [ -122.425819332607375, 37.763653462249991 ], [ -122.425819360477064, 37.763649857263999 ], [ -122.425810278112877, 37.763649813011952 ], [ -122.42581030598302, 37.763646208025953 ], [ -122.425801251489872, 37.763642558787211 ], [ -122.425801307230984, 37.763635348815228 ], [ -122.425792224868616, 37.763635304561802 ], [ -122.42578773942985, 37.763628072462843 ], [ -122.425783198249121, 37.763628050335697 ], [ -122.425783253991952, 37.763620840363707 ], [ -122.425774171631375, 37.76362079610891 ], [ -122.425774227375086, 37.763613586136934 ], [ -122.425769686195238, 37.763613564009269 ], [ -122.425774283118756, 37.763606376164937 ], [ -122.42575611840121, 37.763606287653282 ], [ -122.425756146273912, 37.763602682667297 ], [ -122.42575160509476, 37.76360266053895 ], [ -122.425751632967689, 37.763599055552959 ], [ -122.42574255060984, 37.763599011295746 ], [ -122.425742578483209, 37.763595406309761 ], [ -122.425724413768464, 37.763595317793246 ], [ -122.425724385894213, 37.763598922779224 ], [ -122.425715275661744, 37.763602483505863 ], [ -122.425715219912348, 37.763609693477797 ], [ -122.425710678732813, 37.763609671347872 ], [ -122.425710595108015, 37.763620486305733 ], [ -122.425692374635602, 37.763627607756106 ], [ -122.425692318883947, 37.763634817727976 ], [ -122.425674154159722, 37.763634729203638 ], [ -122.425674182036417, 37.76363112421771 ], [ -122.425665099674774, 37.7636310799545 ], [ -122.425665127551923, 37.76362747496858 ], [ -122.425633339287884, 37.763627320041834 ], [ -122.425633311409186, 37.763630925027741 ], [ -122.4256287702284, 37.76363090289464 ], [ -122.425628798107311, 37.763627297908741 ], [ -122.425601578904292, 37.763623560120642 ], [ -122.425601606784525, 37.763619955134764 ], [ -122.425592524424346, 37.76361991086597 ], [ -122.425592552305019, 37.763616305880085 ], [ -122.425565305225987, 37.763616173069515 ], [ -122.425562238177775, 37.764012721500826 ], [ -122.425571320585902, 37.764012765772343 ], [ -122.425571292703808, 37.764016370757972 ], [ -122.425598539929709, 37.764016503568342 ], [ -122.425598567810468, 37.764012898582706 ], [ -122.425612191422829, 37.764012964985518 ], [ -122.425612219302934, 37.764009359999868 ], [ -122.425634925322527, 37.764009470667723 ], [ -122.425639410768866, 37.764016702772096 ], [ -122.425643951973242, 37.76401672490497 ], [ -122.425643896216101, 37.764023934876299 ], [ -122.425652950747619, 37.764027584127192 ], [ -122.425657436196815, 37.76403481623089 ], [ -122.425661977402299, 37.764034838363081 ], [ -122.425661949524581, 37.764038443348745 ], [ -122.425671031936048, 37.764038487612602 ], [ -122.425670976181493, 37.764045697583938 ], [ -122.425666434975312, 37.764045675452088 ], [ -122.425666407097822, 37.76404928043776 ], [ -122.425675461633531, 37.76405292968694 ], [ -122.425675433756453, 37.764056534672612 ], [ -122.425684516170136, 37.764056578935438 ], [ -122.425684488293484, 37.764060183921117 ], [ -122.42568902950056, 37.764060206052285 ], [ -122.425689057376999, 37.764056601066606 ], [ -122.425698139790697, 37.764056645328388 ], [ -122.425698111914713, 37.764060250314074 ], [ -122.425711735535998, 37.764060316705454 ], [ -122.425711707660668, 37.764063921691111 ], [ -122.425720790075317, 37.764063965951166 ], [ -122.425720762200427, 37.764067570936859 ], [ -122.425729844615532, 37.764067615196225 ], [ -122.425729816741068, 37.764071220181904 ], [ -122.425734357948855, 37.764071242311317 ], [ -122.425734274326146, 37.764082057268389 ], [ -122.425984040798156, 37.764083274117411 ] ], [ [ -122.425666825259896, 37.763995205652606 ], [ -122.425657742853758, 37.763995161388465 ], [ -122.425657910120933, 37.763973531474299 ], [ -122.425666992524427, 37.763973575738397 ], [ -122.425666964647021, 37.763977180724098 ], [ -122.42567150584901, 37.763977202855898 ], [ -122.425671450094612, 37.763984412827313 ], [ -122.425666908892211, 37.763984390695512 ], [ -122.425666825259896, 37.763995205652606 ] ], [ [ -122.425776510937411, 37.763905612122954 ], [ -122.425771969739714, 37.763905589995247 ], [ -122.42577199761196, 37.763901985009433 ], [ -122.42577653880943, 37.763902007137141 ], [ -122.425776510937411, 37.763905612122954 ] ], [ [ -122.425776566681449, 37.76389840215132 ], [ -122.425772025484193, 37.763898380023619 ], [ -122.425772081228658, 37.76389117005197 ], [ -122.425776622425445, 37.763891192179678 ], [ -122.425776566681449, 37.76389840215132 ] ], [ [ -122.425763026707713, 37.763887520810215 ], [ -122.425758485511153, 37.763887498681996 ], [ -122.425758513384025, 37.763883893696175 ], [ -122.425744889794984, 37.763883827310472 ], [ -122.425744917668524, 37.763880222324659 ], [ -122.425740376472433, 37.763880200195743 ], [ -122.425735891024246, 37.763872968095022 ], [ -122.425726808632945, 37.763872923836324 ], [ -122.425726836507323, 37.763869318850531 ], [ -122.42571778199131, 37.763865669605323 ], [ -122.425717865615795, 37.763854854647903 ], [ -122.425713324421253, 37.763854832517957 ], [ -122.425713352296285, 37.763851227532143 ], [ -122.42572246255952, 37.763847666806043 ], [ -122.42572705950235, 37.763840478963992 ], [ -122.425736141889686, 37.763840523222633 ], [ -122.425736197637505, 37.763833313250956 ], [ -122.425740738830754, 37.763833335380021 ], [ -122.425740683083376, 37.763840545351691 ], [ -122.425754306664444, 37.763840611737827 ], [ -122.425754334537487, 37.763837006751984 ], [ -122.42576341692444, 37.763837051008529 ], [ -122.425763361179264, 37.763844260980221 ], [ -122.425767902373209, 37.763844283108234 ], [ -122.425767846628432, 37.763851493079919 ], [ -122.425772387822803, 37.763851515207762 ], [ -122.42576779088364, 37.763858703051618 ], [ -122.425772332078452, 37.76385872517946 ], [ -122.425772276334087, 37.763865935151145 ], [ -122.425776817529353, 37.763865957278824 ], [ -122.425776706041447, 37.763880377222179 ], [ -122.425772164845284, 37.763880355094493 ], [ -122.425772136973094, 37.763883960080321 ], [ -122.425763054580358, 37.763883915824401 ], [ -122.425763026707713, 37.763887520810215 ] ] ] } }
]
}
